full_address,Address,City,State,Zip
"Ivy House, 3 Ivy Terrace, Eastbourne BN21 4QU, United Kingdom ","Ivy House, 3 ",", Eastbourne ",", Eastbourne", BN21 4QU
"6502 Van Nuys Blvd, Van Nuys, CA 91401, United States ","6502 Van Nuys Blvd, ",", Van Nuys,",", United States", CA 91401
"134 Green St, London E7 8JQ, United Kingdom ","134 Green St, ",", London ",", United Kingdo", E7 8JQ
"45 Rockefeller Plaza, New York, NY 10111, United States ","45 Rockefeller Plaza, ",", New York,",", United States", NY 10111
"444 Madison Ave #35, New York, NY 10022, United States ","444 Madison Ave #35, ",", New York,",", United States", NY 10022
"22 Park Ln, London W1K 1BE, United Kingdom ","22 Park Ln, ",", London ",", United Kingdo", W1K 1BE
"1400 Geary Blvd, San Francisco, CA 94109, United States ","1400 Geary Blvd, ",", San Franc",", San Franci", CA 94109
"80 Fenchurch St, London EC3M 4BY, United Kingdom ","80 Fenchurch St, ",", London ",", United Kingdo", EC3M 4BY
"Thorpe End, Leeds, Melton Mowbray LE13 1RB, United Kingdom ","Thorpe End, ",", Leeds,",", Leeds, Melton", LE13 1RB
"53 Upper St, London N1 0UY, United Kingdom ","53 Upper St, ",", London ",", United Kingdo", N1 0UY
"527 Madison Ave 4th floor, New York, NY 10022, United States ","527 Madison Ave 4th floor, ",", New York,",", United States", Ave 4th
"527 Madison Ave 4th floor, New York, NY 10022, United States ","527 Madison Ave 4th floor, ",", New York,",", United States", Ave 4th
"1113, 275 Madison Ave #2002, New York, NY 10016, United States ","1113, 275 ",", New York,",", United States", NY 10016
"35 E 76th St, New York, NY 10075, United States ","35 E 76th St, ",", New York,",", United States", E 76th
"564 Park Ave, New York, NY 10065, United States ","564 Park Ave, ",", New York,",", United States", NY 10065
"117 West St, New York, NY 10006, United States ","117 West St, ",", New York,",", United States", NY 10006
"4220 Duncan Ave, St. Louis, MO 63110, United States ","4220 Duncan Ave, ",", United State",", United States", MO 63110
"2701 94th St SW, Everett, WA 98204, United States ","2701 94th St SW, ",", Everett,",", Everett", WA 98204
"390 Park Ave, New York, NY 10022, United States ","390 Park Ave, ",", New York,",", United States", NY 10022
"390 Park Ave, New York, NY 10022, United States ","390 Park Ave, ",", New York,",", United States", NY 10022
"7239 S Western Ave, Chicago, IL 60636, United States ","7239 S Western Ave, ",", Chicago,",", Chicago", IL 60636
"Citrus Grove, Side Ley, Kegworth, Derby DE74 2FJ, United Kingdom","Citrus Grove, ",", Kegworth,",", Kegworth", DE74 2FJ
"1540 Broadway, New York, NY 10036, United States ","1540 Broadway, ",", New York,",", United States", NY 10036
"14 St. Leonard's St, Edinburgh EH8 9QW, United Kingdom ","14 St. Leonard's St, ",", Edinburgh ",", Edinburgh", EH8 9QW
"30500 Mound Rd, Warren, MI 48092, United States ","30500 Mound Rd, ",", Warren,",", United States", MI 48092
"9831 S 51st St, Phoenix, AZ 85044, United States ","9831 S 51st St, ",", Phoenix,",", Phoenix", S 51st
"10 Rockefeller Plaza #910, New York, NY 10020, United States ","10 Rockefeller Plaza #910, ",", New York,",", United States", NY 10020
"1285 6th Ave, New York, NY 10019, United States ","1285 6th Ave, ",", New York,",", United States", NY 10019
"1 Market St 36th floor, San Francisco, CA 94105, United States ","1 Market St 36th floor, ",", San Franc",", San Franci", St 36th
"1 Market St 36th floor, San Francisco, CA 94105, United States ","1 Market St 36th floor, ",", San Franc",", San Franci", St 36th
"8 E Washington St STE 200, Chagrin Falls, OH 44022, United States ","8 E Washington St STE 200, ",", Chagrin Falls",", Chagrin", STE 200
"244 W 56th St, New York, NY 10019, United States ","244 W 56th St, ",", New York,",", United States", W 56th
"411 West Putnam Avenue, Greenwich, CT 06830, United States ","411 West Putnam Avenue, ",", Greenwich,",", Greenwich", CT 06830
"Madeline Rd, Leicester LE4 1WX, United Kingdom ","Madeline Rd, ",", Leicester ",", Leicester", LE4 1WX
"Pear New Mill, Stockport Rd W, Stockport SK6 2BP, United Kingdom ","Pear New Mill, ",", Stockport ",", Stockport", SK6 2BP
"16 Carrington Ave, Flackwell Heath, High Wycombe HP10 9AL, United Kingdom ","16 Carrington Ave, ",", Flackwell Heath",", Flackwell", HP10 9AL
"3310 Tweedy Blvd, South Gate, CA 90280, United States ","3310 Tweedy Blvd, ",", South Gate,",", United States", CA 90280
"8333 Michigan Ave, Detroit, MI 48210, United States ","8333 Michigan Ave, ",", Detroit,",", Detroit", MI 48210
"8333 Michigan Ave, Detroit, MI 48210, United States ","8333 Michigan Ave, ",", Detroit,",", Detroit", MI 48210
"Unit 2D, Elland Road industrial Estate, Beeston, Leeds LS11 0EY, United Kingdom ","Unit 2D, ",", Elland Road ",", Beeston", LS11 0EY
"8333 Michigan Ave, Detroit, MI 48210, United States ","8333 Michigan Ave, ",", Detroit,",", Detroit", MI 48210
"37500 Van Born Rd, Wayne, MI 48184, United States ","37500 Van Born Rd, ",", Wayne,",", United States", MI 48184
"8929 N Ramsey Blvd, Portland, OR 97203, United States ","8929 N Ramsey Blvd, ",", Portland,",", Portland", OR 97203
"691 Prince Ave, Westcliff-on-Sea, Southend-on-Sea, Westcliff-on-Sea SS0 0JA, United Kingdom ","691 Prince Ave, ",", Westcliff-",", Westcliff", SS0 0JA
"28 State St 34th Floor, Boston, MA 02109, United States ","28 State St 34th Floor, ",", Boston,",", United States", St 34th
"765 Parkway, Gatlinburg, TN 37738, United States ","765 Parkway, ",", Gatlinburg,",", Gatlinburg", TN 37738
"527 Madison Ave 4th floor, New York, NY 10022, United States ","527 Madison Ave 4th floor, ",", New York,",", United States", Ave 4th
"527 Madison Ave 4th floor, New York, NY 10022, United States ","527 Madison Ave 4th floor, ",", New York,",", United States", Ave 4th
"1 Westgate St, Gloucester GL1 2TT, United Kingdom ","1 Westgate St, ",", Gloucester ",", Gloucester", GL1 2TT
"155 Park Row, Brunswick, ME 04011, United States ","155 Park Row, ",", Brunswick,",", Brunswick", ME 04011
"35 E 21st St 9th floor, New York, NY 10010, United States ","35 E 21st St 9th floor, ",", New York,",", United States", E 21st
"10960 Wilshire Blvd Ste 2000, Los Angeles, CA 90024, United States ","10960 Wilshire Blvd Ste 2000, ",", Los Angel",", Los Angele", Ste 2000
"213 E Grand Ave., South San Francisco, CA 94080, United States ","213 E Grand Ave., ",", South ",", United States", CA 94080
"33 Avenue Louis Pasteur, Boston, MA 02115, United States ","33 Avenue Louis Pasteur, ",", Boston,",", United States", MA 02115
"61 9th Ave, New York, NY 10011, United States ","61 9th Ave, ",", New York,",", United States", NY 10011
"Mulberry Way, Wakefield WF1 2QN, United Kingdom ","Mulberry Way, ",", Wakefield ",", Wakefield", WF1 2QN
"M85W+7FH, Sahibabad Industrial Area Site 4, Sahibabad, Ghaziabad, Uttar Pradesh 201010 ","M85W+7FH, ",", Sahibabad Indus",", Sahibabad Indust"," Site 4,"
"5th Level, Leela Business Park, Andheri - Kurla Rd, Mumbai, Maharashtra 400059 ","5th Level, ",", Leela Busin",", Leela Busine", Maharashtra 400059
"Madhapur, Hyderabad, Telangana ","Madhapur, ",", Hyderabad,",", Hyderabad, Telang",
"Bagmane World Technology Center, KR Puram Marathahalli North Ring Road Hobli, Doddanekundi, Mahadevapura, Bengaluru, Karnataka 560048 ","Bagmane World Technology Center, ",", KR Puram",", Doddanekundi, Mahade", Karnataka 560048
"85 E 8th St #160, Holland, MI 49423, United States ","85 E 8th St #160, ",", Holland,",", Holland", E 8th
"902 Carnegie Center Blvd, Princeton, NJ 08540, United States ","902 Carnegie Center Blvd, ",", Princeton,",", Princeton", NJ 08540
"Gulf Tower, One, #2420, Pittsburgh, PA 15222, United States ","Gulf Tower, ",", Pittsburgh,",", Pittsburgh", PA 15222
"550 Kirkland Way #200, Kirkland, WA 98033, United States ","550 Kirkland Way #200, ",", Kirkland,",", Kirkland", WA 98033
"1125 Trenton Harbourton Rd, Titusville, NJ 08560, United States ","1125 Trenton Harbourton Rd, ",", Titusville,",", Titusville", NJ 08560
"200 Inner Belt Rd, Somerville, MA 02143, United States ","200 Inner Belt Rd, ",", Somerville,",", Somerville", MA 02143
"333 Lakeside Dr, Foster City, CA 94404, United States ","333 Lakeside Dr, ",", Foster City,",", United States", CA 94404
"777 Old Saw Mill River Rd, Tarrytown, NY 10591, United States ","777 Old Saw Mill River Rd, ",", Tarrytown,",", Tarrytown", NY 10591
"910 Clopper Rd, Gaithersburg, MD 20878, United States ","910 Clopper Rd, ",", Gaithersburg,",", Gaithersburg", MD 20878
"675 W Kendall St, Cambridge, MA 02142, United States ","675 W Kendall St, ",", Cambridge,",", Cambridge", MA 02142
"345 Corporate Center Ct, Stockbridge, GA 30281, United States ","345 Corporate Center Ct, ",", Stockbridge,",", Stockbridge", GA 30281
"675 W Kendall St, Cambridge, MA 02142, United States ","675 W Kendall St, ",", Cambridge,",", Cambridge", MA 02142
"Pear New Mill, Stockport Rd W, Stockport SK6 2BP, United Kingdom ","Pear New Mill, ",", Stockport ",", Stockport", SK6 2BP
"Weston Ave, West Thurrock, Grays RM20 3LP, United Kingdom ","Weston Ave, ",", West Thurr",", West Thurro", RM20 3LP
"675 W Kendall St, Cambridge, MA 02142, United States ","675 W Kendall St, ",", Cambridge,",", Cambridge", MA 02142
"9911 Belward Campus Dr, Rockville, MD 20850, United States ","9911 Belward Campus Dr, ",", Rockville,",", Rockville", MD 20850
"499 Illinois St, San Francisco, CA 94158, United States ","499 Illinois St, ",", San Franc",", San Franci", CA 94158
"499 Illinois St, San Francisco, CA 94158, United States ","499 Illinois St, ",", San Franc",", San Franci", CA 94158
"3401 Princeton Pike, Lawrence Township, NJ 08648, United States ","3401 Princeton Pike, ",", Lawrence Towns",", Lawrence Townsh", NJ 08648
"1500 Owens St Suite 500, San Francisco, CA 94158, United States ","1500 Owens St Suite 500, ",", San Franc",", San Franci", Suite 500
"St Andrew's House, Regent Rd, Edinburgh EH1 3DG, United Kingdom ","St Andrew's House, ",", Regent ",", Edinburgh", EH1 3DG
"39300 W 10 Mile Rd, Farmington Hills, MI 48335, United States ","39300 W 10 Mile Rd, ",", Farmington Hills",", Farmington", W 10
"530 5th Ave #4, New York, NY 10036, United States ","530 5th Ave #4, ",", New York,",", United States", NY 10036
"280 N Gibson Rd, Henderson, NV 89014, United States ","280 N Gibson Rd, ",", Henderson,",", Henderson", NV 89014
"Shopping Centre, Gunwharf Rd, Portsmouth PO1 3TA, United Kingdom ","Shopping Centre, ",", Gunwharf ",", Gunwharf", PO1 3TA
"900 Nicollet Mall, Minneapolis, MN 55403, United States ","900 Nicollet Mall, ",", Minneapolis,",", Minneapolis", MN 55403
"789 Mission St, San Francisco, CA 94103, United States ","789 Mission St, ",", San Franc",", San Franci", CA 94103
"15800 87th St NE, Otsego, MN 55330, United States ","15800 87th St NE, ",", Otsego,",", United States", MN 55330
"900 Nicollet Mall, Minneapolis, MN 55403, United States ","900 Nicollet Mall, ",", Minneapolis,",", Minneapolis", MN 55403
"900 Nicollet Mall, Minneapolis, MN 55403, United States ","900 Nicollet Mall, ",", Minneapolis,",", Minneapolis", MN 55403
"900 Nicollet Mall, Minneapolis, MN 55403, United States ","900 Nicollet Mall, ",", Minneapolis,",", Minneapolis", MN 55403
"900 Nicollet Mall, Minneapolis, MN 55403, United States ","900 Nicollet Mall, ",", Minneapolis,",", Minneapolis", MN 55403
"900 Nicollet Mall, Minneapolis, MN 55403, United States ","900 Nicollet Mall, ",", Minneapolis,",", Minneapolis", MN 55403
"900 Nicollet Mall, Minneapolis, MN 55403, United States ","900 Nicollet Mall, ",", Minneapolis,",", Minneapolis", MN 55403
"900 Nicollet Mall, Minneapolis, MN 55403, United States ","900 Nicollet Mall, ",", Minneapolis,",", Minneapolis", MN 55403
"8900 MN-7, St Louis Park, MN 55426, United States ","8900 MN-7, ",", St Louis",", United States", MN 55426
"900 Nicollet Mall, Minneapolis, MN 55403, United States ","900 Nicollet Mall, ",", Minneapolis,",", Minneapolis", MN 55403
"900 Nicollet Mall, Minneapolis, MN 55403, United States ","900 Nicollet Mall, ",", Minneapolis,",", Minneapolis", MN 55403
"735 S Figueroa St, Los Angeles, CA 90017, United States ","735 S Figueroa St, ",", Los Angel",", Los Angele", CA 90017
"900 Nicollet Mall, Minneapolis, MN 55403, United States ","900 Nicollet Mall, ",", Minneapolis,",", Minneapolis", MN 55403
"789 Mission St, San Francisco, CA 94103, United States ","789 Mission St, ",", San Franc",", San Franci", CA 94103
"1300 University Ave W, St Paul, MN 55104, United States ","1300 University Ave W, ",", St Paul,",", United States", MN 55104
"1300 University Ave W, St Paul, MN 55104, United States ","1300 University Ave W, ",", St Paul,",", United States", MN 55104
"1300 University Ave W, St Paul, MN 55104, United States ","1300 University Ave W, ",", St Paul,",", United States", MN 55104
"2404 S Promenade Blvd, Rogers, AR 72758, United States ","2404 S Promenade Blvd, ",", Rogers,",", United States", AR 72758
"1300 University Ave W, St Paul, MN 55104, United States ","1300 University Ave W, ",", St Paul,",", United States", MN 55104
"Central Bedfordshire Council Offices Watling House, High St N, Dunstable, Bedfordshire LU6 1LF, United Kingdom ","Central Bedfordshire Council Offices Watling House, ",", Dunstable,",", Dunstable, Bedfor", LU6 1LF
"1st G Main Rd, Mariappanapalya, Rajajinagar, Bengaluru, Karnataka 560021 ","1st G Main Rd, ",", Mariappanapalya,",", Mariappanapalya, Rajaji", Karnataka 560021
"2 Folsom St, San Francisco, CA 94105, United States ","2 Folsom St, ",", San Franc",", San Franci", CA 94105
"55 Thomas St, New York, NY 10013, United States ","55 Thomas St, ",", New York,",", United States", NY 10013
"2 Folsom St, San Francisco, CA 94105, United States ","2 Folsom St, ",", San Franc",", San Franci", CA 94105
"4440 Rosewood Dr, Pleasanton, CA 94588, United States ","4440 Rosewood Dr, ",", Pleasanton,",", Pleasanton", CA 94588
"2 Folsom St, San Francisco, CA 94105, United States ","2 Folsom St, ",", San Franc",", San Franci", CA 94105
"2 Folsom St, San Francisco, CA 94105, United States ","2 Folsom St, ",", San Franc",", San Franci", CA 94105
"The Streets at Southpoint, 6910 Fayetteville Rd Suite 2240, Durham, NC 27713, United States ","The Streets at Southpoint, 6910 ",", Durham,",", United States", Suite 2240
"55 Thomas St, New York, NY 10013, United States ","55 Thomas St, ",", New York,",", United States", NY 10013
"2 Folsom St, San Francisco, CA 94105, United States ","2 Folsom St, ",", San Franc",", San Franci", CA 94105
"Fashion Place, 1500 Polaris Pkwy Ste 2240, Columbus, OH 43240, United States ","Fashion Place, 1500 ",", Columbus,",", Columbus", Ste 2240
"10250 Santa Monica Blvd, Los Angeles, CA 90067, United States","10250 Santa Monica Blvd, ",", Los Angel",", Los Angele", CA 90067
"2 Folsom St, San Francisco, CA 94105, United States ","2 Folsom St, ",", San Franc",", San Franci", CA 94105
"638 SW 5th Ave, Portland, OR 97204, United States ","638 SW 5th Ave, ",", Portland,",", Portland", SW 5th
"638 SW 5th Ave, Portland, OR 97204, United States ","638 SW 5th Ave, ",", Portland,",", Portland", SW 5th
"3485 SW Knowlton Rd, Beaverton, OR 97005, United States ","3485 SW Knowlton Rd, ",", Beaverton,",", Beaverton", OR 97005
"3485 SW Knowlton Rd, Beaverton, OR 97005, United States ","3485 SW Knowlton Rd, ",", Beaverton,",", Beaverton", OR 97005
"638 SW 5th Ave, Portland, OR 97204, United States ","638 SW 5th Ave, ",", Portland,",", Portland", SW 5th
"3485 SW Knowlton Rd, Beaverton, OR 97005, United States ","3485 SW Knowlton Rd, ",", Beaverton,",", Beaverton", OR 97005
"One Bowerman Dr, Beaverton, OR 97005, United States ","One Bowerman Dr, ",", Beaverton,",", Beaverton", OR 97005
"One Bowerman Dr, Beaverton, OR 97005, United States ","One Bowerman Dr, ",", Beaverton,",", Beaverton", OR 97005
"638 SW 5th Ave, Portland, OR 97204, United States ","638 SW 5th Ave, ",", Portland,",", Portland", SW 5th
"1670 S Amphlett Blvd, San Mateo, CA 94402, United States ","1670 S Amphlett Blvd, ",", San Mateo",", United States", CA 94402
"1000 E Hanes Mill Rd, Winston-Salem, NC 27105, United States ","1000 E Hanes Mill Rd, ",", Winston-",", Winston", NC 27105
"1000 E Hanes Mill Rd, Winston-Salem, NC 27105, United States ","1000 E Hanes Mill Rd, ",", Winston-",", Winston", NC 27105
"6 Church St W, Woking GU21 6DJ, United Kingdom ","6 Church St W, ",", Woking ",", United Kingdo", GU21 6DJ
"Unit 329, 331 W Thurrock Way, West Thurrock, Grays RM20 2ZP, United Kingdom ","Unit 329, 331 ",", West Thurr",", West Thurro", RM20 2ZP
"640 5th Ave, New York, NY 10019, United States ","640 5th Ave, ",", New York,",", United States", NY 10019
"640 5th Ave, New York, NY 10019, United States ","640 5th Ave, ",", New York,",", United States", NY 10019
"640 5th Ave, New York, NY 10019, United States ","640 5th Ave, ",", New York,",", United States", NY 10019
"1855 41st Ave, Capitola, CA 95010, United States ","1855 41st Ave, ",", Capitola,",", Capitola", CA 95010
"4070 The Strand E, Columbus, OH 43219, United States ","4070 The Strand E, ",", Columbus,",", Columbus", OH 43219
"4070 The Strand E, Columbus, OH 43219, United States ","4070 The Strand E, ",", Columbus,",", Columbus", OH 43219
"28th Km Stone, Nashik Igatpuri Road NH-3, Taluka Igatpuri, Mundhegaon, Maharashtra 422403 ","28th Km Stone, ",", Nashik Igatp",", Nashik Igatpu", Maharashtra 422403
"16 Berkeley St, London W1J 8DZ, United Kingdom ","16 Berkeley St, ",", London ",", United Kingdo", W1J 8DZ
"5985 State Bridge Rd, Duluth, GA 30097, United States ","5985 State Bridge Rd, ",", Duluth,",", United States", GA 30097
"151 W 34th St, New York, NY 10001, United States ","151 W 34th St, ",", New York,",", United States", W 34th
"79 Pl. Saint-Jacques, 75014 Paris, France ","79 Pl. Saint-Jacques, 75014 ",", France ",,
"79 Pl. Saint-Jacques, 75014 Paris, France ","79 Pl. Saint-Jacques, 75014 ",", France ",,
"79 Pl. Saint-Jacques, 75014 Paris, France ","79 Pl. Saint-Jacques, 75014 ",", France ",,
"13 Av. Paul Langevin, 92350 Le Plessis-Robinson, France ","13 Av. Paul Langevin, 92350 ",", France ",,
"577 Av. du Général Leclerc, 92100 Boulogne-Billancourt, France ","577 Av. du Général Leclerc, 92100 ",", France ",,
"79 Pl. Saint-Jacques, 75014 Paris, France ","79 Pl. Saint-Jacques, 75014 ",", France ",,
"13 Av. Paul Langevin, 92350 Le Plessis-Robinson, France ","13 Av. Paul Langevin, 92350 ",", France ",,
"79 Pl. Saint-Jacques, 75014 Paris, France ","79 Pl. Saint-Jacques, 75014 ",", France ",,
"577 Av. du Général Leclerc, 92100 Boulogne-Billancourt, France ","577 Av. du Général Leclerc, 92100 ",", France ",,
"( Radhakrishnan Salai), 53, Rajasekaran St, opp. Kalyani Hospital, Mylapore, Chennai, Tamil Nadu 600004 ","( Radhakrishnan Salai), 53",", Rajasekaran ",", Rajasekaran", Nadu 600004
"Mambakkam - Medavakkam Main Rd, Krishnaveni Nagar, Medavakkam, Chennai, Tamil Nadu 600073 ","Mambakkam - Medavakkam Main Rd, ",", Krishnaveni Nagar",", Krishnaveni", Nadu 600073
"577 Av. du Général Leclerc, 92100 Boulogne-Billancourt, France ","577 Av. du Général Leclerc, 92100 ",", France ",,
"184 Av. du Mont Riboudet, 76000 Rouen, France ","184 Av. du Mont Riboudet, 76000 ",", France ",,
"Gewerbegebiet Am Griesenholz, Ing.-Anton-Kathrein-Straße 1-7, 83101 Rohrdorf, Germany ","Gewerbegebiet Am Griesenholz, ",", Germany ",", Germany",
"13 Av. Paul Langevin, 92350 Le Plessis-Robinson, France ","13 Av. Paul Langevin, 92350 ",", France ",,
"111 Peters Canyon Rd, Irvine, CA 92606, United States ","111 Peters Canyon Rd, ",", Irvine,",", United States", CA 92606
"13 Av. Paul Langevin, 92350 Le Plessis-Robinson, France ","13 Av. Paul Langevin, 92350 ",", France ",,
"79 Pl. Saint-Jacques, 75014 Paris, France ","79 Pl. Saint-Jacques, 75014 ",", France ",,
"13 Av. Paul Langevin, 92350 Le Plessis-Robinson, France ","13 Av. Paul Langevin, 92350 ",", France ",,
"13 Av. Paul Langevin, 92350 Le Plessis-Robinson, France ","13 Av. Paul Langevin, 92350 ",", France ",,
"B-25, Pocket B, Okhla Phase I, Okhla Industrial Estate, New Delhi, Delhi 110020 ","B-25, ",", Pocket ",", Okhla Indust", Delhi 110020
"1 route de Vendeville, 59155 Faches-Thumesnil, France ","1 route de Vendeville, 59155 ",", France ",,
"1 Av. du Golf, 78280 Guyancourt, France ","1 Av. du Golf, 78280 ",", France ",,
"Plot No. 952, Orbit Plaza, 5th Floor, 954, New Prabhadevi Rd, Prabhadevi, Mumbai, Maharashtra 400025 ","Plot No. 952, ",", Orbit Plaza",", New Prabha", Maharashtra 400025
"1129/A, Rd Number 36, Jubilee Hills, Hyderabad, Telangana 500033 ","1129/A, ",", Rd Numbe",", Rd Number", Number 36
"No. 36, Hitech City Rd, Sri Sai Nagar, Jubilee Hills, Hyderabad, Telangana 500033 ","No. 36, ",", Hitech City ",", Jubilee", Telangana 500033
"1622, 12th Cross Rd, Mariappanapalya, Rajajinagar, Bengaluru, Karnataka 560021 ","1622, 12",", Mariappanapalya,",", Mariappanapalya, Rajaji", Karnataka 560021
"2 Av. de la Cristallerie, 92310 Sèvres, France ","2 Av. de la Cristallerie, 92310 ",", France ",,
"79 Pl. Saint-Jacques, 75014 Paris, France ","79 Pl. Saint-Jacques, 75014 ",", France ",,
"100 Commercial St, Atchison, KS 66002, United States ","100 Commercial St, ",", Atchison,",", Atchison", KS 66002
"4-5 Rue Saint-Simon, 69009 Lyon, France ","4-5 Rue Saint-Simon, 69009 ",", France ",,
"1500 Gortner Ave, St Paul, MN 55108, United States ","1500 Gortner Ave, ",", St Paul,",", United States", MN 55108
"10301 Arrowwood Dr, Eden Prairie, MN 55347, United States ","10301 Arrowwood Dr, ",", Eden Prair",", Eden Prairi", MN 55347
"G1, 301, Shanmuga Illam, near Community Hall, Sivaprakasam Nagar, Chennai, Tamil Nadu 600066 ","G1, 301",", Shanmuga Illam",", Shanmuga", Nadu 600066
"A Wing 914, Kanakia WallStreet, Andheri - Kurla Rd, Chakala, Andheri East, Mumbai, Maharashtra 400093 ","A Wing 914, ",", Kanakia WallS",", Kanakia WallSt", Wing 914
"15407 McGinty Rd W, Wayzata, MN 55391, United States ","15407 McGinty Rd W, ",", Wayzata,",", Wayzata", MN 55391
"1500 Gortner Ave, St Paul, MN 55108, United States ","1500 Gortner Ave, ",", St Paul,",", United States", MN 55108
"Millstream, Maidenhead Rd, Windsor SL4 5GD, United Kingdom ","Millstream, ",", Maidenhead ",", Maidenhead", SL4 5GD
"Marble Arch Park House, 116 Park St, London W1K 6AF, United Kingdom ","Marble Arch Park House, 116 ",", London ",", United Kingdo", W1K 6AF
"Marble Arch Park House, 116 Park St, London W1K 6AF, United Kingdom ","Marble Arch Park House, 116 ",", London ",", United Kingdo", W1K 6AF
"3 Rosell Dr, Ballston Lake, NY 12019, United States ","3 Rosell Dr, ",", Ballston Lake,",", Ballston", NY 12019
"1 Beard St, Brooklyn, NY 11231, United States ","1 Beard St, ",", Brooklyn,",", Brooklyn", NY 11231
"Osmania University Main Rd, Amberpet, Hyderabad, Telangana 500007 ","Osmania University Main Rd, ",", Amberpet,",", Amberpet, Hydera", Telangana 500007
"Résidence Les Rives de la Seugne, 17500 Jonzac, France ","Résidence Les Rives de la Seugne, 17500 ",", France ",,
"3210 Livermore Outlets Dr, Livermore, CA 94551, United States ","3210 Livermore Outlets Dr, ",", Livermore,",", Livermore", CA 94551
"815 Market St, San Francisco, CA 94103, United States ","815 Market St, ",", San Franc",", San Franci", CA 94103
"815 Market St, San Francisco, CA 94103, United States ","815 Market St, ",", San Franc",", San Franci", CA 94103
"815 Market St, San Francisco, CA 94103, United States ","815 Market St, ",", San Franc",", San Franci", CA 94103
"815 Market St, San Francisco, CA 94103, United States ","815 Market St, ",", San Franc",", San Franci", CA 94103
"815 Market St, San Francisco, CA 94103, United States ","815 Market St, ",", San Franc",", San Franci", CA 94103
"815 Market St, San Francisco, CA 94103, United States ","815 Market St, ",", San Franc",", San Franci", CA 94103
"815 Market St, San Francisco, CA 94103, United States ","815 Market St, ",", San Franc",", San Franci", CA 94103
"815 Market St, San Francisco, CA 94103, United States ","815 Market St, ",", San Franc",", San Franci", CA 94103
"Hermann-Blenk-Straße 8, 38108 Braunschweig, Germany ","Hermann-Blenk-Straße 8, 38108 ",", Germany ",", Germany",
"Berliner Ring 2, 38440 Wolfsburg, Germany ","Berliner Ring 2, 38440 ",", Germany ",", Germany"," Ring 2,"
"Berliner Ring 2, 38440 Wolfsburg, Germany ","Berliner Ring 2, 38440 ",", Germany ",", Germany"," Ring 2,"
"2855 Stevens Creek Blvd #1103, Santa Clara, CA 95050, United States ","2855 Stevens Creek Blvd #1103, ",", Santa Clara",", United States", CA 95050
"Berliner Ring 2, 38440 Wolfsburg, Germany ","Berliner Ring 2, 38440 ",", Germany ",", Germany"," Ring 2,"
"Berliner Ring 2, 38440 Wolfsburg, Germany ","Berliner Ring 2, 38440 ",", Germany ",", Germany"," Ring 2,"
"Berliner Ring 2, 38440 Wolfsburg, Germany ","Berliner Ring 2, 38440 ",", Germany ",", Germany"," Ring 2,"
"Berliner Ring 2, 38440 Wolfsburg, Germany ","Berliner Ring 2, 38440 ",", Germany ",", Germany"," Ring 2,"
"Berliner Ring 2, 38440 Wolfsburg, Germany ","Berliner Ring 2, 38440 ",", Germany ",", Germany"," Ring 2,"
"Berliner Ring 2, 38440 Wolfsburg, Germany ","Berliner Ring 2, 38440 ",", Germany ",", Germany"," Ring 2,"
"Chetwode House, Leicester Road, Melton Mowbray LE13 1GA, United Kingdom ","Chetwode House, ",", Leicester Road,",", Leicester", LE13 1GA
"Wembley Road, Oakmeadow, Leicester LE3 1UR, United Kingdom ","Wembley Road, ",", Oakmeadow,",", Oakmeadow, Leices", LE3 1UR
"Berliner Ring 2, 38440 Wolfsburg, Germany ","Berliner Ring 2, 38440 ",", Germany ",", Germany"," Ring 2,"
"815 Market St, San Francisco, CA 94103, United States ","815 Market St, ",", San Franc",", San Franci", CA 94103
"739 Bass Pro Dr NW Suite 538, Altoona, IA 50009, United States ","739 Bass Pro Dr NW Suite 538, ",", Altoona,",", Altoona", Suite 538
"2200 Woodland Pointe Ave, Herndon, VA 20171, United States ","2200 Woodland Pointe Ave, ",", Herndon,",", Herndon", VA 20171
"Berliner Ring 2, 38440 Wolfsburg, Germany ","Berliner Ring 2, 38440 ",", Germany ",", Germany"," Ring 2,"
"Südfeldstraße 17, 30453 Hannover, Germany ","Südfeldstraße 17, 30453 ",", Germany ",", Germany",
"Mollstraße 1, 10178 Berlin, Germany ","Mollstraße 1, 10178 ",", Germany ",", Germany",
"8001 Volkswagen Dr, Chattanooga, TN 37416, United States ","8001 Volkswagen Dr, ",", Chattanooga,",", Chattanooga", TN 37416
"Windsor, Building No. 02, 7th Floor, CST Road, Kalina, Santacruz (East), near Bharat petrol pump, Mumbai, Maharashtra 400098 ","Windsor, ",", Building ",", Building", Maharashtra 400098
"15, Netaji Subhas Rd, Fairley Place, B.B.D. Bagh, Kolkata, West Bengal 700001 ","15, ",", Netaji Subha",", Netaji Subhas", Bengal 700001
"15, Netaji Subhas Rd, Fairley Place, B.B.D. Bagh, Kolkata, West Bengal 700001 ","15, ",", Netaji Subha",", Netaji Subhas", Bengal 700001
"RITES Bhawan, 1, Leisure Valley Rd, Sector 29, Gurugram, Haryana ","RITES Bhawan, 1",", Leisure Valle",", Leisure Valley", Sector 29
"6, Sansad Marg, Sansad Marg Area, New Delhi, Delhi 110001 ","6, ",", Sansad Marg,",, Delhi 110001
"Main Office Building Dr. Raghavendra Road Reserve Bank Civil Square, Civil Lines, Nagpur, Maharashtra 440001 ","Main Office Building Dr. Raghavendra Road Reserve Bank Civil Square, ",", Civil Lines",", Nagpur, Mahara", Maharashtra 440001
"C-7, C-8 and C-9, Bandra Kurla Complex Road, E Block, Bandra Kurla Complex, Bandra East, Mumbai, Maharashtra 400051 ","C-7, ",", Bandra Kurla",", Mumbai, Mahara", Maharashtra 400051
"8-9, Lohia Path, opposite Fun Republic, Vipin Khand, Gomti Nagar, Lucknow, Uttar Pradesh 226010 ","8-9, ",", Lohia Path,",", opposite", Pradesh 226010
"K-2, Hoshangabad Rd, Opposite Hypercity, Arera Hills, Bhopal, Madhya Pradesh 462011 ","K-2, ",", Hoshangabad ",", Hoshangabad", Pradesh 462011
"K-2, Hoshangabad Rd, Opposite Hypercity, Arera Hills, Bhopal, Madhya Pradesh 462011 ","K-2, ",", Hoshangabad ",", Hoshangabad", Pradesh 462011
"St. Martha's Hospital, 10/3/8, Nrupathunga Rd, Opp St, Nunegundlapalli, Ambedkar Veedhi, Bengaluru, Karnataka 560001 ","St. Martha's Hospital, 10",", Nrupathunga ",", Nrupathunga", Karnataka 560001
"Aneto, 31300 Toulouse, France ","Aneto, 31300 ",", France ",,
"316 Rte de Bayonne, 31300 Toulouse, France ","316 Rte de Bayonne, 31300 ",", France ",,
"Aneto, 31300 Toulouse, France ","Aneto, 31300 ",", France ",,
"Aneto, 31300 Toulouse, France ","Aneto, 31300 ",", France ",,
"Weg beim Jäger 150, 22335 Hamburg, Germany ","Weg beim Jäger 150, 22335 ",", Germany ",", Germany", Jäger 150
"316 Rte de Bayonne, 31300 Toulouse, France ","316 Rte de Bayonne, 31300 ",", France ",,
"1101 Pennsylvania Avenue NW, Washington, DC 20004, United States ","1101 Pennsylvania Avenue NW, ",", Washington,",", Washington", DC 20004
"Aneto, 31300 Toulouse, France ","Aneto, 31300 ",", France ",,
"Weg beim Jäger 150, 22335 Hamburg, Germany ","Weg beim Jäger 150, 22335 ",", Germany ",", Germany", Jäger 150
"Aneto, 31300 Toulouse, France ","Aneto, 31300 ",", France ",,
"Aneto, 31300 Toulouse, France ","Aneto, 31300 ",", France ",,
"Aneto, 31300 Toulouse, France ","Aneto, 31300 ",", France ",,
"Pegasus House, Aerospace Ave, Filton, Bristol BS34 7PA, United Kingdom ","Pegasus House, ",", Aerospace ",", Aerospace", BS34 7PA
"Aneto, 31300 Toulouse, France ","Aneto, 31300 ",", France ",,
"316 Rte de Bayonne, 31300 Toulouse, France ","316 Rte de Bayonne, 31300 ",", France ",,
"Aneto, 31300 Toulouse, France ","Aneto, 31300 ",", France ",,
"225 W 57th St, New York, NY 10019, United States ","225 W 57th St, ",", New York,",", United States", W 57th
"Aneto, 31300 Toulouse, France ","Aneto, 31300 ",", France ",,
"249 Rue Jean Mermoz, 16430 Champniers, France ","249 Rue Jean Mermoz, 16430 ",", France ",,
"249 Rue Jean Mermoz, 16430 Champniers, France ","249 Rue Jean Mermoz, 16430 ",", France ",,
"500 Pine St, Seattle, WA 98101, United States ","500 Pine St, ",", Seattle,",", Seattle", WA 98101
"Broughton, Chester CH4 0DR, United Kingdom ","Broughton, ",", Chester ",", Chester", CH4 0DR
"249 Rue Jean Mermoz, 16430 Champniers, France ","249 Rue Jean Mermoz, 16430 ",", France ",,
"249 Rue Jean Mermoz, 16430 Champniers, France ","249 Rue Jean Mermoz, 16430 ",", France ",,
"249 Rue Jean Mermoz, 16430 Champniers, France ","249 Rue Jean Mermoz, 16430 ",", France ",,
"Weg beim Jäger 150, 22335 Hamburg, Germany ","Weg beim Jäger 150, 22335 ",", Germany ",", Germany", Jäger 150
"Weg beim Jäger 150, 22335 Hamburg, Germany ","Weg beim Jäger 150, 22335 ",", Germany ",", Germany", Jäger 150
"RITES Bhawan, 1, Leisure Valley Rd, Sector 29, Gurugram, Haryana ","RITES Bhawan, 1",", Leisure Valle",", Leisure Valley", Sector 29
"RITES Bhawan, 1, Leisure Valley Rd, Sector 29, Gurugram, Haryana ","RITES Bhawan, 1",", Leisure Valle",", Leisure Valley", Sector 29
"RITES Bhawan, 1, Leisure Valley Rd, Sector 29, Gurugram, Haryana ","RITES Bhawan, 1",", Leisure Valle",", Leisure Valley", Sector 29
"RITES Bhawan, 1, Leisure Valley Rd, Sector 29, Gurugram, Haryana ","RITES Bhawan, 1",", Leisure Valle",", Leisure Valley", Sector 29
"RITES Bhawan, 1, Leisure Valley Rd, Sector 29, Gurugram, Haryana ","RITES Bhawan, 1",", Leisure Valle",", Leisure Valley", Sector 29
"RITES Bhawan, 1, Leisure Valley Rd, Sector 29, Gurugram, Haryana ","RITES Bhawan, 1",", Leisure Valle",", Leisure Valley", Sector 29
"RITES Bhawan, 1, Leisure Valley Rd, Sector 29, Gurugram, Haryana ","RITES Bhawan, 1",", Leisure Valle",", Leisure Valley", Sector 29
"RITES Bhawan, 1, Leisure Valley Rd, Sector 29, Gurugram, Haryana ","RITES Bhawan, 1",", Leisure Valle",", Leisure Valley", Sector 29
"RITES Bhawan, 1, Leisure Valley Rd, Sector 29, Gurugram, Haryana ","RITES Bhawan, 1",", Leisure Valle",", Leisure Valley", Sector 29
"RITES Bhawan, 1, Leisure Valley Rd, Sector 29, Gurugram, Haryana ","RITES Bhawan, 1",", Leisure Valle",", Leisure Valley", Sector 29
"50, Expansion Building, Bhilai Steel Plant Area, Bhilai, Chhattisgarh 490001 ","50, ",", Expansion Build",", Expansion Buildi", Chhattisgarh 490001
"RITES Bhawan, 1, Leisure Valley Rd, Sector 29, Gurugram, Haryana ","RITES Bhawan, 1",", Leisure Valle",", Leisure Valley", Sector 29
"RITES Bhawan, 1, Leisure Valley Rd, Sector 29, Gurugram, Haryana ","RITES Bhawan, 1",", Leisure Valle",", Leisure Valley", Sector 29
"RITES Bhawan, 1, Leisure Valley Rd, Sector 29, Gurugram, Haryana ","RITES Bhawan, 1",", Leisure Valle",", Leisure Valley", Sector 29
"RITES Bhawan, 1, Leisure Valley Rd, Sector 29, Gurugram, Haryana ","RITES Bhawan, 1",", Leisure Valle",", Leisure Valley", Sector 29
"50, Expansion Building, Bhilai Steel Plant Area, Bhilai, Chhattisgarh 490001 ","50, ",", Expansion Build",", Expansion Buildi", Chhattisgarh 490001
"50, Expansion Building, Bhilai Steel Plant Area, Bhilai, Chhattisgarh 490001 ","50, ",", Expansion Build",", Expansion Buildi", Chhattisgarh 490001
"RITES Bhawan, 1, Leisure Valley Rd, Sector 29, Gurugram, Haryana ","RITES Bhawan, 1",", Leisure Valle",", Leisure Valley", Sector 29
"RITES Bhawan, 1, Leisure Valley Rd, Sector 29, Gurugram, Haryana ","RITES Bhawan, 1",", Leisure Valle",", Leisure Valley", Sector 29
"RITES Bhawan, 1, Leisure Valley Rd, Sector 29, Gurugram, Haryana ","RITES Bhawan, 1",", Leisure Valle",", Leisure Valley", Sector 29
"RITES Bhawan, 1, Leisure Valley Rd, Sector 29, Gurugram, Haryana ","RITES Bhawan, 1",", Leisure Valle",", Leisure Valley", Sector 29
"RITES Bhawan, 1, Leisure Valley Rd, Sector 29, Gurugram, Haryana ","RITES Bhawan, 1",", Leisure Valle",", Leisure Valley", Sector 29
"RITES Bhawan, 1, Leisure Valley Rd, Sector 29, Gurugram, Haryana ","RITES Bhawan, 1",", Leisure Valle",", Leisure Valley", Sector 29
"RITES Bhawan, 1, Leisure Valley Rd, Sector 29, Gurugram, Haryana ","RITES Bhawan, 1",", Leisure Valle",", Leisure Valley", Sector 29
"RITES Bhawan, 1, Leisure Valley Rd, Sector 29, Gurugram, Haryana ","RITES Bhawan, 1",", Leisure Valle",", Leisure Valley", Sector 29
"RITES Bhawan, 1, Leisure Valley Rd, Sector 29, Gurugram, Haryana ","RITES Bhawan, 1",", Leisure Valle",", Leisure Valley", Sector 29
"RITES Bhawan, 1, Leisure Valley Rd, Sector 29, Gurugram, Haryana ","RITES Bhawan, 1",", Leisure Valle",", Leisure Valley", Sector 29
"RITES Bhawan, 1, Leisure Valley Rd, Sector 29, Gurugram, Haryana ","RITES Bhawan, 1",", Leisure Valle",", Leisure Valley", Sector 29
"RITES Bhawan, 1, Leisure Valley Rd, Sector 29, Gurugram, Haryana ","RITES Bhawan, 1",", Leisure Valle",", Leisure Valley", Sector 29
"Berliner Ring 2, 38440 Wolfsburg, Germany ","Berliner Ring 2, 38440 ",", Germany ",", Germany"," Ring 2,"
"500 Pine St, Seattle, WA 98101, United States ","500 Pine St, ",", Seattle,",", Seattle", WA 98101
"Weg beim Jäger 150, 22335 Hamburg, Germany ","Weg beim Jäger 150, 22335 ",", Germany ",", Germany", Jäger 150
"No. 76, 77, Cyber Park, 3rd Cross Road, Electronic City, Phase 1, Dodathogur Village, Bengaluru, Karnataka 560100 ","No. 76, 77",", Cyber Park,",", Electronic"," Phase 1,"
"No. 76, 77, Cyber Park, 3rd Cross Road, Electronic City, Phase 1, Dodathogur Village, Bengaluru, Karnataka 560100 ","No. 76, 77",", Cyber Park,",", Electronic"," Phase 1,"
"No. 76, 77, Cyber Park, 3rd Cross Road, Electronic City, Phase 1, Dodathogur Village, Bengaluru, Karnataka 560100 ","No. 76, 77",", Cyber Park,",", Electronic"," Phase 1,"
"RITES Bhawan, 1, Leisure Valley Rd, Sector 29, Gurugram, Haryana ","RITES Bhawan, 1",", Leisure Valle",", Leisure Valley", Sector 29
"1-4, London SW1A 2DR, United Kingdom ","1-4, ",", London ",", United Kingdo", SW1A 2DR
"1 Staplee Way, Peterborough PE1 4YT, United Kingdom ","1 Staplee Way, ",", Peterborough ",", Peterborough", PE1 4YT
"Westward Parade, London E14 9RB, United Kingdom ","Westward Parade, ",", London ",", United Kingdo", E14 9RB
"1-4, London SW1A 2DR, United Kingdom ","1-4, ",", London ",", United Kingdo", SW1A 2DR
"Westward Parade, London E14 9RB, United Kingdom ","Westward Parade, ",", London ",", United Kingdo", E14 9RB
"95-101 Luton Rd, Harpenden AL5 3BB, United Kingdom ","95-101 Luton Rd, ",", Harpenden ",", Harpenden", AL5 3BB
"6-1-56, AG Office Rd, Saifabad, Khairtabad, Hyderabad, Telangana 500004 ","6-1-56, ",", AG Offic",", AG Office", Telangana 500004
"316 Rte de Bayonne, 31300 Toulouse, France ","316 Rte de Bayonne, 31300 ",", France ",,
"50, Expansion Building, Bhilai Steel Plant Area, Bhilai, Chhattisgarh 490001 ","50, ",", Expansion Build",", Expansion Buildi", Chhattisgarh 490001
"St. Martha's Hospital, 10/3/8, Nrupathunga Rd, Opp St, Nunegundlapalli, Ambedkar Veedhi, Bengaluru, Karnataka 560001 ","St. Martha's Hospital, 10",", Nrupathunga ",", Nrupathunga", Karnataka 560001
"7 Ridgmount St, London WC1E 7AE, United Kingdom ","7 Ridgmount St, ",", London ",", United Kingdo", WC1E 7AE
"Arla House, 4 Savannah Way, Leeds Valley Park, Leeds LS10 1AB, United Kingdom ","Arla House, 4 ",", Leeds Valle",", Leeds Valley", LS10 1AB
"29 George St, Richmond TW9 1HY, United Kingdom ","29 George St, ",", Richmond ",", Richmond", TW9 1HY
"Pegasus House, Aerospace Ave, Filton, Bristol BS34 7PA, United Kingdom ","Pegasus House, ",", Aerospace ",", Aerospace", BS34 7PA
"4355 NW 36th St, Miami Springs, FL 33166, United States ","4355 NW 36th St, ",", Miami Sprin",", Miami Spring", NW 36th
"1-4, London SW1A 2DR, United Kingdom ","1-4, ",", London ",", United Kingdo", SW1A 2DR
"Princes Rd, Chelmsford CM2 9XW, United Kingdom ","Princes Rd, ",", Chelmsford ",", Chelmsford", CM2 9XW
"Great North Rd., Hatfield AL9 5JY, United Kingdom ","Great North Rd., ",", Hatfield ",", Hatfield", AL9 5JY
"33-39 St Peter's St, St Albans AL1 3EB, United Kingdom ","33-39 St Peter's St, ",", St Alban",", St Albans", AL1 3EB
"T-94-95, Bhosari Industrial Area,Bhosari, Pune, Maharashtra 411026 ","T-94-95, ",", Bhosari Indus",", Bhosari Indust", Maharashtra 411026
"5th Level, Leela Business Park, Andheri - Kurla Rd, Mumbai, Maharashtra 400059 ","5th Level, ",", Leela Busin",", Leela Busine", Maharashtra 400059
"Near Mehdibaugh Railway Crossing, Haider Estate, Kheripura, Nagpur, Maharashtra 440002 ","Near Mehdibaugh Railway Crossing, ",", Haider Estat",", Haider Estate", Maharashtra 440002
"4 M Chem. du Petit Bois, 69130 Écully, France ","4 M Chem. du Petit Bois, 69130 ",", France ",,
"500 Pine St, Seattle, WA 98101, United States ","500 Pine St, ",", Seattle,",", Seattle", WA 98101
"500 Pine St, Seattle, WA 98101, United States ","500 Pine St, ",", Seattle,",", Seattle", WA 98101
"500 Pine St, Seattle, WA 98101, United States ","500 Pine St, ",", Seattle,",", Seattle", WA 98101
"100 Bellevue Square, Bellevue, WA 98004, United States ","100 Bellevue Square, ",", Bellevue,",", Bellevue", WA 98004
"225 W 57th St, New York, NY 10019, United States ","225 W 57th St, ",", New York,",", United States", W 57th
"500 Pine St, Seattle, WA 98101, United States ","500 Pine St, ",", Seattle,",", Seattle", WA 98101
"225 W 57th St, New York, NY 10019, United States ","225 W 57th St, ",", New York,",", United States", W 57th
"Plot No. 83, 2nd Floor,1st Phase, Electronic City, Bengaluru, Karnataka 560100 ","Plot No. 83, 2",", Electronic City,",", Electronic", Karnataka 560100
"6-3-871, SNEHALATA, Greenlands Road, Begumpet, Hyderabad, Telangana 500016 ","6-3-871, ",", SNEHALATA,",", SNEHALATA, Greenl", Telangana 500016
"6-3-871, SNEHALATA, Greenlands Road, Begumpet, Hyderabad, Telangana 500016 ","6-3-871, ",", SNEHALATA,",", SNEHALATA, Greenl", Telangana 500016
"Broughton, Chester CH4 0DR, United Kingdom ","Broughton, ",", Chester ",", Chester", CH4 0DR
"1700 County B Rd W #2, Roseville, MN 55113, United States ","1700 County B Rd W #2, ",", Roseville,",", Roseville", MN 55113
"1 PPG Pl, Pittsburgh, PA 15222, United States ","1 PPG Pl, ",", Pittsburgh,",", Pittsburgh", PA 15222
"44 Center Pkwy, Birmingham, AL 35242, United States ","44 Center Pkwy, ",", Birmingham,",", Birmingham", AL 35242
"2607 Preston Rd, Frisco, TX 75034, United States ","2607 Preston Rd, ",", Frisco,",", United States", TX 75034
"2607 Preston Rd, Frisco, TX 75034, United States ","2607 Preston Rd, ",", Frisco,",", United States", TX 75034
"KEMP HOUSE, 152-160 City Rd, London EC1V 2NX, United Kingdom ","KEMP HOUSE, 152",", London ",", United Kingdo", EC1V 2NX
"1 Devonshire Walk, Derby DE1 2AH, United Kingdom ","1 Devonshire Walk, ",", Derby ",", United Kingdo", DE1 2AH
"5 Strand, London WC2N 5HR, United Kingdom ","5 Strand, ",", London ",", United Kingdo", WC2N 5HR
"26575 Northline Rd, Taylor, MI 48180, United States ","26575 Northline Rd, ",", Taylor,",", United States", MI 48180
"Industriestraße 48, 96317 Kronach, Germany ","Industriestraße 48, 96317 ",", Germany ",", Germany",
"13 Av. Morane Saulnier, 78140 Vélizy-Villacoublay, France ","13 Av. Morane Saulnier, 78140 ",", France ",,
"5 Strand, London WC2N 5HR, United Kingdom ","5 Strand, ",", London ",", United Kingdo", WC2N 5HR
"Coporate Office Complex, Shakti Sadan, Shanan, Shimla, Himachal Pradesh 171006 ","Coporate Office Complex, ",", Shakti Sadan",", Shanan, Shimla", Pradesh 171006
"107/7, Chakki Tola, Sailok, Kanwali, Dehradun, Uttarakhand 248146 ","107/7, ",", Chakki Tola,",", Sailok, Kanwal", Uttarakhand 248146
"Coporate Office Complex, Shakti Sadan, Shanan, Shimla, Himachal Pradesh 171006 ","Coporate Office Complex, ",", Shakti Sadan",", Shanan, Shimla", Pradesh 171006
"Wear Bay Rd, Folkestone CT19 6PG, United Kingdom ","Wear Bay Rd, ",", Folkestone ",", Folkestone", CT19 6PG
"Brandy Carr Rd, Wrenthorpe, Wakefield WF2 0UG, United Kingdom ","Brandy Carr Rd, ",", Wrenthorpe,",", Wrenthorpe, Wakefi", WF2 0UG
"Cereal Partners, Staverton, Trowbridge BA14 6PG, United Kingdom ","Cereal Partners, ",", Staverton,",", Staverton, Trowbr", BA14 6PG
"902 E Hamilton Ave, Flint, MI 48505, United States ","902 E Hamilton Ave, ",", Flint,",", United States", MI 48505
"Guildford Business Park Rd, Guildford GU2 8JZ, United Kingdom ","Guildford Business Park Rd, ",", Guildford ",", Guildford", GU2 8JZ
"16 Kingsmead, Park Farm Rd, Park Farm Industrial Estate, Folkestone CT19 5EU, United Kingdom ","16 Kingsmead, ",", Park Farm ",", Folkestone", CT19 5EU
"Cody Technology Park, Old Ively Rd, Farnborough GU14 0LX, United Kingdom ","Cody Technology Park, ",", Old Ively",", Farnborough", GU14 0LX
"Cody Technology Park, Old Ively Rd, Farnborough GU14 0LX, United Kingdom ","Cody Technology Park, ",", Old Ively",", Farnborough", GU14 0LX
"Cody Technology Park, Old Ively Rd, Farnborough GU14 0LX, United Kingdom ","Cody Technology Park, ",", Old Ively",", Farnborough", GU14 0LX
"Cody Technology Park, Old Ively Rd, Farnborough GU14 0LX, United Kingdom ","Cody Technology Park, ",", Old Ively",", Farnborough", GU14 0LX
"1353 Westwood Blvd, Los Angeles, CA 90024, United States ","1353 Westwood Blvd, ",", Los Angel",", Los Angele", CA 90024
"Karolinenstraße 47, 90402 Nürnberg, Germany ","Karolinenstraße 47, 90402 ",", Germany ",", Germany",
"Gunnar-Wester-Straße 12, 97421 Schweinfurt, Germany ","Gunnar-Wester-Straße 12, 97421 ",", Germany ",", Germany",
"Olympiaring 2, 91074 Herzogenaurach, Germany ","Olympiaring 2, 91074 ",", Germany ",", Germany",
"Karolinenstraße 47, 90402 Nürnberg, Germany ","Karolinenstraße 47, 90402 ",", Germany ",", Germany",
"5055 N Greeley Ave, Portland, OR 97217, United States ","5055 N Greeley Ave, ",", Portland,",", Portland", OR 97217
"Karolinenstraße 47, 90402 Nürnberg, Germany ","Karolinenstraße 47, 90402 ",", Germany ",", Germany",
"Karolinenstraße 47, 90402 Nürnberg, Germany ","Karolinenstraße 47, 90402 ",", Germany ",", Germany",
"Olympiaring 2, 91074 Herzogenaurach, Germany ","Olympiaring 2, 91074 ",", Germany ",", Germany",
"5055 N Greeley Ave, Portland, OR 97217, United States ","5055 N Greeley Ave, ",", Portland,",", Portland", OR 97217
"Karolinenstraße 47, 90402 Nürnberg, Germany ","Karolinenstraße 47, 90402 ",", Germany ",", Germany",
"8009 Melrose Ave, Los Angeles, CA 90046, United States ","8009 Melrose Ave, ",", Los Angel",", Los Angele", CA 90046
"Karolinenstraße 47, 90402 Nürnberg, Germany ","Karolinenstraße 47, 90402 ",", Germany ",", Germany",
"Zeil 105, 60313 Frankfurt am Main, Germany ","Zeil 105, 60313 ",", Germany ",", Germany",
"Zeil 105, 60313 Frankfurt am Main, Germany ","Zeil 105, 60313 ",", Germany ",", Germany",
"Guildford Business Park Rd, Guildford GU2 8JZ, United Kingdom ","Guildford Business Park Rd, ",", Guildford ",", Guildford", GU2 8JZ
"DAZN Building 1 White rose office park, Leeds LS11 0BG, United Kingdom ","DAZN Building 1 White rose office park, ",", Leeds ",", United Kingdo", Building 1 Wh
"The Capital Building, Old Hall St, Liverpool L3 9PP, United Kingdom ","The Capital Building, ",", Old Hall ",", Liverpool", L3 9PP
"Wallbrook Court, N Hinksey Ln, Oxford OX2 0QS, United Kingdom ","Wallbrook Court, ",", N Hinks",", N Hinkse", OX2 0QS
"Wallbrook Court, N Hinksey Ln, Oxford OX2 0QS, United Kingdom ","Wallbrook Court, ",", N Hinks",", N Hinkse", OX2 0QS
"Karolinenstraße 47, 90402 Nürnberg, Germany ","Karolinenstraße 47, 90402 ",", Germany ",", Germany",
"F-27/2, Pocket D, Okhla Phase II, Okhla Industrial Estate, New Delhi, Delhi 110020 ","F-27/2, ",", Pocket ",", Okhla Indust", Delhi 110020
"VerkaufsCenter, Besselstraße 24, 68219 Mannheim, Germany ","VerkaufsCenter, ",", Besselstraß",", Besselstra", Besselstraße 24
"Karolinenstraße 47, 90402 Nürnberg, Germany ","Karolinenstraße 47, 90402 ",", Germany ",", Germany",
"Olympiaring 2, 91074 Herzogenaurach, Germany ","Olympiaring 2, 91074 ",", Germany ",", Germany",
"5055 N Greeley Ave, Portland, OR 97217, United States ","5055 N Greeley Ave, ",", Portland,",", Portland", OR 97217
"Olympiaring 2, 91074 Herzogenaurach, Germany ","Olympiaring 2, 91074 ",", Germany ",", Germany",
"Fürther Str. 248, 90429 Nürnberg, Germany ","Fürther Str. 248, 90429 ",", Germany ",", Germany",
"Centre Commercial Rives d'Arcins, 33130 Bègles, France ","Centre Commercial Rives d'Arcins, 33130 ",", France ",,
"23 Av. des Champs Pierreux, 92000 Nanterre, France ","23 Av. des Champs Pierreux, 92000 ",", France ",,
"23 Av. des Champs Pierreux, 92000 Nanterre, France ","23 Av. des Champs Pierreux, 92000 ",", France ",,
"23 Av. des Champs Pierreux, 92000 Nanterre, France ","23 Av. des Champs Pierreux, 92000 ",", France ",,
"110, Anna Salai, Chintadripet, Chennai, Tamil Nadu 600002 ","110, ",", Anna Salai",", Chintadripet, Chenna", Nadu 600002
"White House, 3rd, Kundanbagh Colony, Begumpet, Hyderabad, Telangana 500048 ","White House, 3",", Kundanbagh Colon",", Kundanbagh Colony", Telangana 500048
"Ennore EB Port Road, Opp. Vishurrutha Logistics, Vallur Village, Tiruvallur, Tamil Nadu 600120 ","Ennore EB Port Road, ",", Vallur Villa",", Vallur Villag", Nadu 600120
"100 North Point St, San Francisco, CA 94133, United States ","100 North Point St, ",", San Franc",", San Franci", CA 94133
"100 North Point St, San Francisco, CA 94133, United States ","100 North Point St, ",", San Franc",", San Franci", CA 94133
"100 North Point St, San Francisco, CA 94133, United States ","100 North Point St, ",", San Franc",", San Franci", CA 94133
"100 North Point St, San Francisco, CA 94133, United States ","100 North Point St, ",", San Franc",", San Franci", CA 94133
"100 North Point St, San Francisco, CA 94133, United States ","100 North Point St, ",", San Franc",", San Franci", CA 94133
"100 North Point St, San Francisco, CA 94133, United States ","100 North Point St, ",", San Franc",", San Franci", CA 94133
"100 North Point St, San Francisco, CA 94133, United States ","100 North Point St, ",", San Franc",", San Franci", CA 94133
"8677 Impact Court, Indianapolis, IN 46219, United States ","8677 Impact Court, ",", Indianapolis,",", Indianapolis", IN 46219
"Faureciastraße 1, 76767 Hagenbach, Germany ","Faureciastraße 1, 76767 ",", Germany ",", Germany",
"Faureciastraße 1, 76767 Hagenbach, Germany ","Faureciastraße 1, 76767 ",", Germany ",", Germany",
"1141/1142, Solitaire Corporate Park, Bldg. No. 11, 167, Guru Hargovindji, Marg, Andheri Ghatkopar Link Road-Extension, Chakala, Andheri East, Mumbai, Maharashtra 400093 ","1141/1142, ",", Solitaire Corpo",", Solitaire Corpor", Maharashtra 400093
"Holden House, Rathbone Pl, London W1T 1JU, United Kingdom ","Holden House, ",", Rathbone ",", Rathbone", W1T 1JU
"458 Oxford St, London W1C 1AP, United Kingdom ","458 Oxford St, ",", London ",", United Kingdo", W1C 1AP
"458 Oxford St, London W1C 1AP, United Kingdom ","458 Oxford St, ",", London ",", United Kingdo", W1C 1AP
"70 Finsbury Pavement, Moorgate, London EC2A 1SA, United Kingdom ","70 Finsbury Pavement, ",", Moorgate,",", Moorgate, London", EC2A 1SA
"Terres du Grand Chemin, 41300 Theillay, France ","Terres du Grand Chemin, 41300 ",", France ",,
"2701 NW Vaughn St #290, Portland, OR 97210, United States ","2701 NW Vaughn St #290, ",", Portland,",", Portland", OR 97210
"1141/1142, Solitaire Corporate Park, Bldg. No. 11, 167, Guru Hargovindji, Marg, Andheri Ghatkopar Link Road-Extension, Chakala, Andheri East, Mumbai, Maharashtra 400093 ","1141/1142, ",", Solitaire Corpo",", Solitaire Corpor", Maharashtra 400093
"56 High St, Southend-on-Sea SS1 1JS, United Kingdom ","56 High St, ",", Southend-",", Southend", SS1 1JS
"Railway Station, Neville St, Leeds LS1 4DY, United Kingdom ","Railway Station, ",", Neville ",", Neville", LS1 4DY
"1141/1142, Solitaire Corporate Park, Bldg. No. 11, 167, Guru Hargovindji, Marg, Andheri Ghatkopar Link Road-Extension, Chakala, Andheri East, Mumbai, Maharashtra 400093 ","1141/1142, ",", Solitaire Corpo",", Solitaire Corpor", Maharashtra 400093
"Unnamed Road, South San Francisco, CA 94080, United States ","Unnamed Road, ",", South ",", United States", CA 94080
"151 Buckingham Palace Rd, London SW1W 9SZ, United Kingdom ","151 Buckingham Palace Rd, ",", London ",", United Kingdo", SW1W 9SZ
"FCRR+Q7Q, Gandhi Nagar Industrial Area, Nanda Nagar, Balanagar, Hyderabad, Telangana 500037 ","FCRR+Q7Q, ",", Gandhi Nagar",", Balanagar, Hydera", Telangana 500037
"FCRR+Q7Q, Gandhi Nagar Industrial Area, Nanda Nagar, Balanagar, Hyderabad, Telangana 500037 ","FCRR+Q7Q, ",", Gandhi Nagar",", Balanagar, Hydera", Telangana 500037
"FCRR+Q7Q, Gandhi Nagar Industrial Area, Nanda Nagar, Balanagar, Hyderabad, Telangana 500037 ","FCRR+Q7Q, ",", Gandhi Nagar",", Balanagar, Hydera", Telangana 500037
"FCRR+Q7Q, Gandhi Nagar Industrial Area, Nanda Nagar, Balanagar, Hyderabad, Telangana 500037 ","FCRR+Q7Q, ",", Gandhi Nagar",", Balanagar, Hydera", Telangana 500037
"Mecosabagh, near Radha Krishna Mandir, Mecosabagh Christian Colony, Nagpur, Maharashtra 440004 ","Mecosabagh, ",", near Radha",", Mecosabagh Christ", Maharashtra 440004
"39 Victoria St, London SW1H 0EU, United Kingdom ","39 Victoria St, ",", London ",", United Kingdo", SW1H 0EU
"39 Victoria St, London SW1H 0EU, United Kingdom ","39 Victoria St, ",", London ",", United Kingdo", SW1H 0EU
"Feltham TW13 7BZ, United Kingdom ","Feltham TW13 7BZ, ",", United Kingd",", United Kingdo", TW13 7BZ
"9800 Monroe St 7th Floor, Sandy, UT 84070, United States ","9800 Monroe St 7th Floor, ",", Sandy,",", United States", St 7th
"DAZN Building 1 White rose office park, Leeds LS11 0BG, United Kingdom ","DAZN Building 1 White rose office park, ",", Leeds ",", United Kingdo", Building 1 Wh
"35 Homer Rd, Solihull B91 3QJ, United Kingdom ","35 Homer Rd, ",", Solihull ",", Solihull", B91 3QJ
"39 Victoria St, London SW1H 0EU, United Kingdom ","39 Victoria St, ",", London ",", United Kingdo", SW1H 0EU
"39 Victoria St, London SW1H 0EU, United Kingdom ","39 Victoria St, ",", London ",", United Kingdo", SW1H 0EU
"Harlaw Rd, Inverurie AB51 4FR, United Kingdom ","Harlaw Rd, ",", Inverurie ",", Inverurie", AB51 4FR
"11 Lochside Pl, Edinburgh EH12 9HA, United Kingdom ","11 Lochside Pl, ",", Edinburgh ",", Edinburgh", EH12 9HA
"11 Lochside Pl, Edinburgh EH12 9HA, United Kingdom ","11 Lochside Pl, ",", Edinburgh ",", Edinburgh", EH12 9HA
"39 Victoria St, London SW1H 0EU, United Kingdom ","39 Victoria St, ",", London ",", United Kingdo", SW1H 0EU
"39 Victoria St, London SW1H 0EU, United Kingdom ","39 Victoria St, ",", London ",", United Kingdo", SW1H 0EU
"52-56 Market St, Manchester M1 1PW, United Kingdom ","52-56 Market St, ",", Manchester ",", Manchester", M1 1PW
"The Quadrant, Elder Gate, Milton Keynes MK9 1EN, United Kingdom","The Quadrant, ",", Elder Gate,",", Milton Keynes", MK9 1EN
"3000 E 1st Ave Spc 1121, Denver, CO 80206, United States ","3000 E 1st Ave Spc 1121, ",", Denver,",", United States", E 1st
"3 Beehive Ring Rd, Crawley, Gatwick RH6 0PA, United Kingdom ","3 Beehive Ring Rd, ",", Crawley,",", Crawley, Gatwic", RH6 0PA
"Central Arts Plaza, 1850 N Central Ave #1900, Phoenix, AZ 85004, United States ","Central Arts Plaza, 1850 ",", Phoenix,",", Phoenix", AZ 85004
"1404 Newton Dr, Champaign, IL 61822, United States ","1404 Newton Dr, ",", Champaign,",", Champaign", IL 61822
"105 Corporate Center Blvd, Greensboro, NC 27408, United States ","105 Corporate Center Blvd, ",", Greensboro,",", Greensboro", NC 27408
"1551 Wewatta St, Denver, CO 80202, United States ","1551 Wewatta St, ",", Denver,",", United States", CO 80202
"105 Corporate Center Blvd, Greensboro, NC 27408, United States ","105 Corporate Center Blvd, ",", Greensboro,",", Greensboro", NC 27408
"105 Corporate Center Blvd, Greensboro, NC 27408, United States ","105 Corporate Center Blvd, ",", Greensboro,",", Greensboro", NC 27408
"Waldo Way, Normanby, Scunthorpe DN15 9GE, United Kingdom","Waldo Way, ",", Normanby,",", Normanby, Scunth", DN15 9GE
"Beazer House, Lower Bristol Rd, Bath BA2 3BA, United Kingdom ","Beazer House, ",", Lower Brist",", Lower Bristo", BA2 3BA
"651 Kapkowski Rd #1450, Elizabeth, NJ 07201, United States ","651 Kapkowski Rd #1450, ",", Elizabeth,",", Elizabeth", NJ 07201
"651 Kapkowski Rd #1450, Elizabeth, NJ 07201, United States ","651 Kapkowski Rd #1450, ",", Elizabeth,",", Elizabeth", NJ 07201
"650 Madison Ave, New York, NY 10022, United States ","650 Madison Ave, ",", New York,",", United States", NY 10022
"651 Kapkowski Rd #1450, Elizabeth, NJ 07201, United States ","651 Kapkowski Rd #1450, ",", Elizabeth,",", Elizabeth", NJ 07201
"867 Madison Ave, New York, NY 10021, United States ","867 Madison Ave, ",", New York,",", United States", NY 10021
"867 Madison Ave, New York, NY 10021, United States ","867 Madison Ave, ",", New York,",", United States", NY 10021
"2nd Floor, United Kingdom House, 164-182 Oxford St, London W1D 1NN, United Kingdom","2nd Floor, ",", United Kingd",", United Kingdo", W1D 1NN
"3465 E Foothill Blvd, Pasadena, CA 91107, United States ","3465 E Foothill Blvd, ",", Pasadena,",", Pasadena", CA 91107
"1 More London Riverside, London SE1 2AF, United Kingdom ","1 More London Riverside, ",", London ",", United Kingdo", SE1 2AF
"Sunnyhills Rd, Leek ST13, United Kingdom","Sunnyhills Rd, ",", United Kingd",", United Kingdo",
"2 Temple Back E, Redcliffe, Bristol BS1 6EG, United Kingdom ","2 Temple Back E, ",", Redcliffe,",", Redcliffe, Bristo", BS1 6EG
"9 Roding Rd, London E6 6LF, United Kingdom ","9 Roding Rd, ",", London ",", United Kingdo", E6 6LF
"9 Roding Rd, London E6 6LF, United Kingdom ","9 Roding Rd, ",", London ",", United Kingdo", E6 6LF
"425 York Rd, Jenkintown, PA 19046, United States ","425 York Rd, ",", Jenkintown,",", Jenkintown", PA 19046
"10 Queen St Pl, London EC4R 1BE, United Kingdom ","10 Queen St Pl, ",", London ",", United Kingdo", EC4R 1BE
"110 Cannon St, London EC4N 6EU, United Kingdom ","110 Cannon St, ",", London ",", United Kingdo", EC4N 6EU
"9 Roding Rd, London E6 6LF, United Kingdom ","9 Roding Rd, ",", London ",", United Kingdo", E6 6LF
"9 Roding Rd, London E6 6LF, United Kingdom ","9 Roding Rd, ",", London ",", United Kingdo", E6 6LF
"Drayton House, Drayton Rd, Shirley, Solihull B90 4NA, United Kingdom ","Drayton House, ",", Drayton ",", Drayton", B90 4NA
"Breakspear Park, Breakspear Way, Hemel Hempstead HP2 4TZ, United Kingdom ","Breakspear Park, ",", Breakspear ",", Breakspear", HP2 4TZ
"Breakspear Park, Breakspear Way, Hemel Hempstead HP2 4TZ, United Kingdom ","Breakspear Park, ",", Breakspear ",", Breakspear", HP2 4TZ
"Breakspear Park, Breakspear Way, Hemel Hempstead HP2 4TZ, United Kingdom ","Breakspear Park, ",", Breakspear ",", Breakspear", HP2 4TZ
"9 Roding Rd, London E6 6LF, United Kingdom ","9 Roding Rd, ",", London ",", United Kingdo", E6 6LF
"105 Corporate Center Blvd, Greensboro, NC 27408, United States ","105 Corporate Center Blvd, ",", Greensboro,",", Greensboro", NC 27408
"651 Kapkowski Rd #1450, Elizabeth, NJ 07201, United States ","651 Kapkowski Rd #1450, ",", Elizabeth,",", Elizabeth", NJ 07201
"651 Kapkowski Rd #1450, Elizabeth, NJ 07201, United States ","651 Kapkowski Rd #1450, ",", Elizabeth,",", Elizabeth", NJ 07201
"651 Kapkowski Rd #1450, Elizabeth, NJ 07201, United States ","651 Kapkowski Rd #1450, ",", Elizabeth,",", Elizabeth", NJ 07201
"25 Drydock Ave NORTH, Boston, MA 02210, United States ","25 Drydock Ave NORTH, ",", Boston,",", United States", MA 02210
"Aventine Way, Glebe Farm Industrial Estate, Rugby CV21 1HA, United Kingdom ","Aventine Way, ",", Glebe Farm ",", United Kingdo", CV21 1HA
"9 Roding Rd, London E6 6LF, United Kingdom ","9 Roding Rd, ",", London ",", United Kingdo", E6 6LF
"25 Drydock Ave NORTH, Boston, MA 02210, United States ","25 Drydock Ave NORTH, ",", Boston,",", United States", MA 02210
"5055 N Greeley Ave, Portland, OR 97217, United States ","5055 N Greeley Ave, ",", Portland,",", Portland", OR 97217
"Bath Rd, Chippenham SN14 0BJ, United Kingdom ","Bath Rd, ",", Chippenham ",", Chippenham", SN14 0BJ
"Sainsbury's, Chell Rd, Stafford ST16 2TF, United Kingdom ","Sainsbury's, ",", Chell ",", Stafford", ST16 2TF
"99 Wilton Rd, Pimlico, London SW1V 1DT, United Kingdom ","99 Wilton Rd, ",", Pimlico,",", Pimlico, London", SW1V 1DT
"99 Wilton Rd, Pimlico, London SW1V 1DT, United Kingdom ","99 Wilton Rd, ",", Pimlico,",", Pimlico, London", SW1V 1DT
"224 Regent St., London W1B 3BR, United Kingdom ","224 Regent St., ",", London ",", United Kingdo", W1B 3BR
"3968 Easton Station, Columbus, OH 43219, United States ","3968 Easton Station, ",", Columbus,",", Columbus", OH 43219
"6301 Fitch Path, New Albany, OH 43054, United States ","6301 Fitch Path, ",", New Alban",", New Albany", OH 43054
"6301 Fitch Path, New Albany, OH 43054, United States ","6301 Fitch Path, ",", New Alban",", New Albany", OH 43054
"1500 Polaris Pkwy #1190, Columbus, OH 43240, United States ","1500 Polaris Pkwy #1190, ",", Columbus,",", Columbus", OH 43240
"3968 Easton Station, Columbus, OH 43219, United States ","3968 Easton Station, ",", Columbus,",", Columbus", OH 43219
"1500 Polaris Pkwy #1190, Columbus, OH 43240, United States ","1500 Polaris Pkwy #1190, ",", Columbus,",", Columbus", OH 43240
"685 5th Ave, New York, NY 10022, United States ","685 5th Ave, ",", New York,",", United States", NY 10022
"30 Mall Drive West Space B40, Jersey City, NJ 07310, United States ","30 Mall Drive West Space B40, ",", Jersey City,",", United States", NJ 07310
"7700 E Kellogg Dr Space 1422, Wichita, KS 67207, United States ","7700 E Kellogg Dr Space 1422, ",", Wichita,",", Wichita", Space 1422
"3737 S 27th St, Milwaukee, WI 53221, United States ","3737 S 27th St, ",", Milwaukee,",", Milwaukee", S 27th
"3737 S 27th St, Milwaukee, WI 53221, United States ","3737 S 27th St, ",", Milwaukee,",", Milwaukee", S 27th
"3737 S 27th St, Milwaukee, WI 53221, United States ","3737 S 27th St, ",", Milwaukee,",", Milwaukee", S 27th
"3737 S 27th St, Milwaukee, WI 53221, United States ","3737 S 27th St, ",", Milwaukee,",", Milwaukee", S 27th
"3737 S 27th St, Milwaukee, WI 53221, United States ","3737 S 27th St, ",", Milwaukee,",", Milwaukee", S 27th
"3737 S 27th St, Milwaukee, WI 53221, United States ","3737 S 27th St, ",", Milwaukee,",", Milwaukee", S 27th
"101 Av. des Champs-Élysées, 75008 Paris, France ","101 Av. des Champs-Élysées, 75008 ",", France ",,
"60 Cr de l'Intendance, 33000 Bordeaux, France ","60 Cr de l'Intendance, 33000 ",", France ",,
"22 Av. Montaigne, 75008 Paris, France ","22 Av. Montaigne, 75008 ",", France ",,
"22 Av. Montaigne, 75008 Paris, France ","22 Av. Montaigne, 75008 ",", France ",,
"101 Av. des Champs-Élysées, 75008 Paris, France ","101 Av. des Champs-Élysées, 75008 ",", France ",,
"22 Av. Montaigne, 75008 Paris, France ","22 Av. Montaigne, 75008 ",", France ",,
"101 Av. des Champs-Élysées, 75008 Paris, France ","101 Av. des Champs-Élysées, 75008 ",", France ",,
"200 Domain Dr, Stratham, NH 03885, United States ","200 Domain Dr, ",", Stratham,",", Stratham", NH 03885
"158 Rue de la Croix Nivert, 75015 Paris, France ","158 Rue de la Croix Nivert, 75015 ",", France ",,
"209 Junction Rd, Madison, WI 53717, United States ","209 Junction Rd, ",", Madison,",", Madison", WI 53717
"2655 Richmond Ave Suite 1510, Staten Island, NY 10314, United States ","2655 Richmond Ave Suite 1510, ",", Staten Islan",", Staten Island", Suite 1510
"209 Junction Rd, Madison, WI 53717, United States ","209 Junction Rd, ",", Madison,",", Madison", WI 53717
"209 Junction Rd, Madison, WI 53717, United States ","209 Junction Rd, ",", Madison,",", Madison", WI 53717
"2655 Richmond Ave Suite 1510, Staten Island, NY 10314, United States ","2655 Richmond Ave Suite 1510, ",", Staten Islan",", Staten Island", Suite 1510
"209 Junction Rd, Madison, WI 53717, United States ","209 Junction Rd, ",", Madison,",", Madison", WI 53717
"Ottenser Hauptstraße 10 Mercado Altona, EG, 22765 Hamburg, Germany ","Ottenser Hauptstraße 10 Mercado Altona, ",", Germany ",", Germany", Hauptstraße 10
"Überseering 18, 22297 Hamburg, Germany ","Überseering 18, 22297 ",", Germany ",", Germany",
"Hollywood Ave, Gosforth, Newcastle upon Tyne NE3 5BU, United Kingdom ","Hollywood Ave, ",", Gosforth,",", Gosforth, Newcas", NE3 5BU
"234 Wythe Ave, Brooklyn, NY 11249, United States ","234 Wythe Ave, ",", Brooklyn,",", Brooklyn", NY 11249
"91 5th Ave, New York, NY 10003, United States ","91 5th Ave, ",", New York,",", United States", NY 10003
"189 Grove Drive Space G-10, Los Angeles, CA 90036, United States ","189 Grove Drive Space G-10, ",", Los Angel",", Los Angele", CA 90036
"3930 Easton Square Pl East, Columbus, OH 43219, United States ","3930 Easton Square Pl East, ",", Columbus,",", Columbus", OH 43219
"911 SW Broadway, Portland, OR 97205, United States ","911 SW Broadway, ",", Portland,",", Portland", OR 97205
"91 5th Ave, New York, NY 10003, United States ","91 5th Ave, ",", New York,",", United States", NY 10003
"290 Pine St, Seattle, WA 98101, United States ","290 Pine St, ",", Seattle,",", Seattle", WA 98101
"911 SW Broadway, Portland, OR 97205, United States ","911 SW Broadway, ",", Portland,",", Portland", OR 97205
"7 Rue Léonce Reynaud, 75116 Paris, France ","7 Rue Léonce Reynaud, 75116 ",", France ",,
"630 Ventura Blvd Suite 1211, Camarillo, CA 93010, United States ","630 Ventura Blvd Suite 1211, ",", Camarillo,",", Camarillo", Suite 1211
"3 Monroe Pkwy Ste H, Lake Oswego, OR 97035, United States ","3 Monroe Pkwy Ste H, ",", Lake Osweg",", Lake Oswego", OR 97035
"171 Victoria St, London SW1E 5NN, United Kingdom ","171 Victoria St, ",", London ",", United Kingdo", SW1E 5NN
"101, The Arcade, Westfield stratford city, London E20 1EL, United Kingdom ","101, ",", The Arcad",", The Arcade", E20 1EL
"95 Main St, Freeport, ME 04032, United States ","95 Main St, ",", Freeport,",", Freeport", ME 04032
"153 E 125th St, New York, NY 10035, United States ","153 E 125th St, ",", New York,",", United States", E 125th
"100 Nassau Park Blvd #300, Princeton, NJ 08540, United States","100 Nassau Park Blvd #300, ",", Princeton,",", Princeton", NJ 08540
"200 Oxford St, London W1D 1NU, United Kingdom ","200 Oxford St, ",", London ",", United Kingdo", W1D 1NU
"200 Oxford St, London W1D 1NU, United Kingdom ","200 Oxford St, ",", London ",", United Kingdo", W1D 1NU
"6 Queen St, Leeds LS1 2TW, United Kingdom ","6 Queen St, ",", Leeds ",", United Kingdo", LS1 2TW
"121 Regent St., London W1B 4TB, United Kingdom ","121 Regent St., ",", London ",", United Kingdo", W1B 4TB
"121 Regent St., London W1B 4TB, United Kingdom ","121 Regent St., ",", London ",", United Kingdo", W1B 4TB
"121 Regent St., London W1B 4TB, United Kingdom ","121 Regent St., ",", London ",", United Kingdo", W1B 4TB
"121 Regent St., London W1B 4TB, United Kingdom ","121 Regent St., ",", London ",", United Kingdo", W1B 4TB
"Horseferry House, Horseferry Rd, London SW1P 2AW, United Kingdom ","Horseferry House, ",", Horseferry ",", Horseferry", SW1P 2AW
"5000 Highlands Pkwy SE #250, Smyrna, GA 30082, United States ","5000 Highlands Pkwy SE #250, ",", Smyrna,",", United States", GA 30082
"23 Chem. de Marticot, 33610 Cestas, France ","23 Chem. de Marticot, 33610 ",", France ",,
"23 Chem. de Marticot, 33610 Cestas, France ","23 Chem. de Marticot, 33610 ",", France ",,
"23 Chem. de Marticot, 33610 Cestas, France ","23 Chem. de Marticot, 33610 ",", France ",,
"5th Floor, Greater london house, 180 Hampstead Rd, London NW1 7AW, United Kingdom ","5th Floor, ",", Greater londo",", Greater london", NW1 7AW
"4201 Wilson Blvd, Arlington, VA 22230, United States ","4201 Wilson Blvd, ",", Arlington,",", Arlington", VA 22230
"7630 Gambrills Cove Rd, Baltimore, MD 21226, United States ","7630 Gambrills Cove Rd, ",", Baltimore,",", Baltimore", MD 21226
"Portal Retail and Business Park, Queens Dr, Nottingham NG2 1AL, United Kingdom ","Portal Retail and Business Park, ",", Queens ",", Nottingham", NG2 1AL
"Stratford Rd, Shirley, Solihull B90 4EL, United Kingdom ","Stratford Rd, ",", Shirley,",", Shirley, Solihu", B90 4EL
"32 Berwick St, London W1F 8RL, United Kingdom ","32 Berwick St, ",", London ",", United Kingdo", W1F 8RL
"79 State St, Newburyport, MA 01950, United States ","79 State St, ",", Newburyport,",", Newburyport", MA 01950
"Abbey Rd, Whitley, Coventry CV3 4LF, United Kingdom","Abbey Rd, ",", Whitley,",", Whitley, Covent", CV3 4LF
"Imperial Road, Prologis Park, Coventry CV8 3LF, United Kingdom ","Imperial Road, ",", Prologis Park,",", Prologis", CV8 3LF
"Lower Kings Road, Brighton BN1 2LN, United Kingdom ","Lower Kings Road, ",", Brighton ",", Brighton", BN1 2LN
"Waterside, Harmondsworth, West Drayton UB7 0GA, United Kingdom ","Waterside, ",", Harmondsworth,",", Harmondsworth", UB7 0GA
"44 Rue la Fayette, 75009 Paris, France ","44 Rue la Fayette, 75009 ",", France ",,
"950 Main St, Worcester, MA 01610, United States ","950 Main St, ",", Worcester,",", Worcester", MA 01610
"1 Lovejoy Wharf, Boston, MA 02114, United States ","1 Lovejoy Wharf, ",", Boston,",", United States", MA 02114
"1 Lovejoy Wharf, Boston, MA 02114, United States ","1 Lovejoy Wharf, ",", Boston,",", United States", MA 02114
"1 Lovejoy Wharf, Boston, MA 02114, United States ","1 Lovejoy Wharf, ",", Boston,",", United States", MA 02114
"1 Lovejoy Wharf, Boston, MA 02114, United States ","1 Lovejoy Wharf, ",", Boston,",", United States", MA 02114
"1001 Frontier Rd, Bridgewater Township, NJ 08807, United States ","1001 Frontier Rd, ",", Bridgewater Towns",", Bridgewater Townsh", NJ 08807
"1130 US-22, Bridgewater Township, NJ 08807, United States ","1130 US-22, ",", Bridgewater Towns",", Bridgewater Townsh", NJ 08807
"Westmoreland House, 80-86 Bath Rd, Cheltenham GL53 7JT, United Kingdom ","Westmoreland House, 80",", Cheltenham ",", Cheltenham", GL53 7JT
"1 London Bridge, London SE1 9BG, United Kingdom ","1 London Bridge, ",", London ",", United Kingdo", SE1 9BG
"Ascot Dr, Allenton, Derby DE24 8ST, United Kingdom ","Ascot Dr, ",", Allenton,",", Allenton", DE24 8ST
"rearsby business park, Auster House, Gaddesby Ln, Leicester LE7 4YH, United Kingdom ","rearsby business park, ",", Auster House",", Gaddesby", LE7 4YH
"Speditionstraße 7, 40221 Düsseldorf, Germany ","Speditionstraße 7, 40221 ",", Germany ",", Germany",
"3/5 Rue du Faubourg Saint-Honoré, 75008 Paris, France ","3/5 Rue du Faubourg Saint-Honoré, 75008 ",", France ",,
"Arvin Mills, Naroda Rd, Darji Ni Chali, Amdupura, D Colony, Ahmedabad, Gujarat 380025 ","Arvin Mills, ",", Naroda ",", Amdupura", Gujarat 380025
"Arvin Mills, Naroda Rd, Darji Ni Chali, Amdupura, D Colony, Ahmedabad, Gujarat 380025 ","Arvin Mills, ",", Naroda ",", Amdupura", Gujarat 380025
"Arvin Mills, Naroda Rd, Darji Ni Chali, Amdupura, D Colony, Ahmedabad, Gujarat 380025 ","Arvin Mills, ",", Naroda ",", Amdupura", Gujarat 380025
"Arvin Mills, Naroda Rd, Darji Ni Chali, Amdupura, D Colony, Ahmedabad, Gujarat 380025 ","Arvin Mills, ",", Naroda ",", Amdupura", Gujarat 380025
"Arvin Mills, Naroda Rd, Darji Ni Chali, Amdupura, D Colony, Ahmedabad, Gujarat 380025 ","Arvin Mills, ",", Naroda ",", Amdupura", Gujarat 380025
"9 Roding Rd, London E6 6LF, United Kingdom ","9 Roding Rd, ",", London ",", United Kingdo", E6 6LF
"135 Townsend St, San Francisco, CA 94107, United States ","135 Townsend St, ",", San Franc",", San Franci", CA 94107
"7000 Arundel Mills Cir Space 224, Hanover, MD 21076, United States ","7000 Arundel Mills Cir Space 224, ",", Hanover,",", Hanover", Space 224
"1020 Hull St, Baltimore, MD 21230, United States ","1020 Hull St, ",", Baltimore,",", Baltimore", MD 21230
"9341 Courtland Dr NE, Rockford, MI 49351, United States ","9341 Courtland Dr NE, ",", Rockford,",", Rockford", MI 49351
"9341 Courtland Dr NE, Rockford, MI 49351, United States ","9341 Courtland Dr NE, ",", Rockford,",", Rockford", MI 49351
"9341 Courtland Dr NE, Rockford, MI 49351, United States ","9341 Courtland Dr NE, ",", Rockford,",", Rockford", MI 49351
"500 Totten Pond Rd, Waltham, MA 02451, United States ","500 Totten Pond Rd, ",", Waltham,",", Waltham", MA 02451
"9341 Courtland Dr NE, Rockford, MI 49351, United States ","9341 Courtland Dr NE, ",", Rockford,",", Rockford", MI 49351
"500 Totten Pond Rd, Waltham, MA 02451, United States ","500 Totten Pond Rd, ",", Waltham,",", Waltham", MA 02451
"7000 Arundel Mills Cir Space 224, Hanover, MD 21076, United States ","7000 Arundel Mills Cir Space 224, ",", Hanover,",", Hanover", Space 224
"7000 Arundel Mills Cir Space 224, Hanover, MD 21076, United States ","7000 Arundel Mills Cir Space 224, ",", Hanover,",", Hanover", Space 224
"5 Star Ln, Ipswich IP4 1DQ, United Kingdom ","5 Star Ln, ",", Ipswich ",", Ipswich", IP4 1DQ
"2 S Gyle Cres, Edinburgh EH12 9FQ, United Kingdom ","2 S Gyle Cres, ",", Edinburgh ",", Edinburgh", EH12 9FQ
"Millbank Tower, 21-24 Millbank, London SW1P 4QP, United Kingdom ","Millbank Tower, 21",", London ",", United Kingdo", SW1P 4QP
"25 New Inn Yard, London EC2A 3EA, United Kingdom ","25 New Inn Yard, ",", London ",", United Kingdo", EC2A 3EA
"2300 60th St, Kenosha, WI 53140, United States ","2300 60th St, ",", Kenosha,",", Kenosha", WI 53140
"999 Van Ness Ave, San Francisco, CA 94109, United States ","999 Van Ness Ave, ",", San Franc",", San Franci", CA 94109
"2312 State St, South Salt Lake, UT 84115, United States","2312 State St, ",", South Salt ",", United States", UT 84115
"Trent House, Station St, Nottingham NG2 3HX, United Kingdom ","Trent House, ",", Station ",", Station", NG2 3HX
"5 Albion Pl, Leeds LS1 6JL, United Kingdom ","5 Albion Pl, ",", Leeds ",", United Kingdo", LS1 6JL
"11 Rue François 1er, 75008 Paris, France ","11 Rue François 1er, 75008 ",", France ",, François 1er
"11 Rue François 1er, 75008 Paris, France ","11 Rue François 1er, 75008 ",", France ",, François 1er
"11 Rue François 1er, 75008 Paris, France ","11 Rue François 1er, 75008 ",", France ",, François 1er
"11 Rue François 1er, 75008 Paris, France ","11 Rue François 1er, 75008 ",", France ",, François 1er
"11 Rue François 1er, 75008 Paris, France ","11 Rue François 1er, 75008 ",", France ",, François 1er
"11 Rue François 1er, 75008 Paris, France ","11 Rue François 1er, 75008 ",", France ",, François 1er
"11 Rue François 1er, 75008 Paris, France ","11 Rue François 1er, 75008 ",", France ",, François 1er
"611 Fifth Avenue Saks, 5th Ave, New York, NY 10022, United States ","611 Fifth Avenue Saks, 5",", New York,",", United States", NY 10022
"611 Fifth Avenue Saks, 5th Ave, New York, NY 10022, United States ","611 Fifth Avenue Saks, 5",", New York,",", United States", NY 10022
"611 Fifth Avenue Saks, 5th Ave, New York, NY 10022, United States ","611 Fifth Avenue Saks, 5",", New York,",", United States", NY 10022
"611 Fifth Avenue Saks, 5th Ave, New York, NY 10022, United States ","611 Fifth Avenue Saks, 5",", New York,",", United States", NY 10022
"11 Rue François 1er, 75008 Paris, France ","11 Rue François 1er, 75008 ",", France ",, François 1er
"3, Romaldkirk Rd, Middlesbrough TS2 1XA, United Kingdom","3, ",", Romaldkirk ",", Romaldkirk", TS2 1XA
"Saffron Way, Spirit House, Leicester LE2 6UP, United Kingdom ","Saffron Way, ",", Spirit House",", Leicester", LE2 6UP
"Millbank Tower, 21-24 Millbank, London SW1P 4QP, United Kingdom ","Millbank Tower, 21",", London ",", United Kingdo", SW1P 4QP
"Atlas House, Third Ave, Marlow SL7 1EY, United Kingdom ","Atlas House, ",", Third ",", United Kingdo", SL7 1EY
"Granta House, 15-19 Broadway, London E15 4BQ, United Kingdom ","Granta House, 15",", London ",", United Kingdo", E15 4BQ
"1 St Georges Way, Leicester LE1 1SG, United Kingdom","1 St Georges Way, ",", Leicester ",", Leicester", LE1 1SG
"13151 W Airport Blvd, Sugar Land, TX 77478, United States","13151 W Airport Blvd, ",", Sugar Land,",", United States", TX 77478
"PO Box 126, Coventry CV4 0UX, United Kingdom ","PO Box 126, ",", Coventry ",", Coventry", Box 126
"1 Anchorage Quay, Manchester M50 3YL, United Kingdom ","1 Anchorage Quay, ",", Manchester ",", Manchester", M50 3YL
"11 Rue François 1er, 75008 Paris, France ","11 Rue François 1er, 75008 ",", France ",, François 1er
"790 Madison Ave, New York, NY 10065, United States ","790 Madison Ave, ",", New York,",", United States", NY 10065
"7 Northfield Dr, Milton Keynes MK15 0DD, United Kingdom ","7 Northfield Dr, ",", Milton Keyne",", Milton Keynes", MK15 0DD
"3700 Crestwood Pkwy NW #1050, Duluth, GA 30096, United States ","3700 Crestwood Pkwy NW #1050, ",", Duluth,",", United States", GA 30096
"24, Jagadamba Soceity, Jivraj Park, Ahmedabad, Gujarat 380051 ","24, ",", Jagadamba Socei",", Jagadamba Soceit", Gujarat 380051
"Enbrook Park, Sandgate CT20 3SE, United Kingdom ","Enbrook Park, ",", Sandgate ",", Sandgate", CT20 3SE
"90 Tottenham Court Rd, London W1T 4TJ, United Kingdom ","90 Tottenham Court Rd, ",", London ",", United Kingdo", W1T 4TJ
"Enterprise House, Chivers Way, Histon, Cambridge CB24 9YR, United Kingdom","Enterprise House, ",", Chivers ",", Chivers", CB24 9YR
"Waterside, Stratford-upon-Avon CV37 6BB, United Kingdom ","Waterside, ",", Stratford-",", Stratford", CV37 6BB
"Old Royal Naval College, Park Row, London SE10 9LS, United Kingdom","Old Royal Naval College, ",", London ",", United Kingdo", SE10 9LS
"Garamonde Dr, Wymbush, Milton Keynes MK8 8DF, United Kingdom ","Garamonde Dr, ",", Wymbush,",", Wymbush, Milton", MK8 8DF
"Harman House, 1 George St, Uxbridge UB8 1QQ, United Kingdom ","Harman House, 1 ",", Uxbridge ",", Uxbridge", UB8 1QQ
"Forbury Retail Park, Reading RG1 3JD, United Kingdom ","Forbury Retail Park, ",", Reading ",", Reading", RG1 3JD
"Abbey Rd, Whitley, Coventry CV3 4LF, United Kingdom","Abbey Rd, ",", Whitley,",", Whitley, Covent", CV3 4LF
"600 Pine St Space #120E, Seattle, WA 98101, United States ","600 Pine St Space #120E, ",", Seattle,",", Seattle", WA 98101
"8532 Melrose Ave, West Hollywood, CA 90069, United States ","8532 Melrose Ave, ",", West Holly",", West Hollyw", CA 90069
"600 Pine St Space #120E, Seattle, WA 98101, United States ","600 Pine St Space #120E, ",", Seattle,",", Seattle", WA 98101
"1000 W 3300 S, Ogden, UT 84401, United States ","1000 W 3300 S, ",", Ogden,",", United States", W 3300
"20-23, duke of york square, King's Rd, London SW3 4LY, United Kingdom ","20-23, ",", London ",", United Kingdo", SW3 4LY
"595 Madison Ave, New York, NY 10022, United States ","595 Madison Ave, ",", New York,",", United States", NY 10022
"Friern Bridge Retail Park, Pegasus Way, London N11 3PW, United Kingdom ","Friern Bridge Retail Park, ",", Pegasus ",", Pegasus", N11 3PW
"610 5th Ave Space C, New York, NY 10020, United States ","610 5th Ave Space C, ",", New York,",", United States", NY 10020
"500 W 33rd St Space 110C, New York, NY 10001, United States ","500 W 33rd St Space 110C, ",", New York,",", United States", W 33rd
"595 5th Ave, New York, NY 10017, United States ","595 5th Ave, ",", New York,",", United States", NY 10017
"595 5th Ave, New York, NY 10017, United States ","595 5th Ave, ",", New York,",", United States", NY 10017
"2150 Park Pl #150, El Segundo, CA 90245, United States ","2150 Park Pl #150, ",", El Segun",", El Segund", CA 90245
"34 Rue Neuve, 59000 Lille, France ","34 Rue Neuve, 59000 ",", France ",,
"quartier De L'Hôtel De Ville, 59650 Villeneuve-d'Ascq, France ","quartier De L'Hôtel De Ville, 59650 ",", France ",,
"34 Rue Neuve, 59000 Lille, France ","34 Rue Neuve, 59000 ",", France ",,
"34 Rue Neuve, 59000 Lille, France ","34 Rue Neuve, 59000 ",", France ",,
"Printemps Ground floor, 64 Bd Haussmann, 75008 Paris, France ","Printemps Ground floor, 64 ",", France ",,
"79 Greene St, New York, NY 10012, United States ","79 Greene St, ",", New York,",", United States", NY 10012
"253 Rue St Honoré, 75001 Paris, France ","253 Rue St Honoré, 75001 ",", France ",,
"253 Rue St Honoré, 75001 Paris, France ","253 Rue St Honoré, 75001 ",", France ",,
"253 Rue St Honoré, 75001 Paris, France ","253 Rue St Honoré, 75001 ",", France ",,
"253 Rue St Honoré, 75001 Paris, France ","253 Rue St Honoré, 75001 ",", France ",,
"Harman House, 1 George St, Uxbridge UB8 1QQ, United Kingdom ","Harman House, 1 ",", Uxbridge ",", Uxbridge", UB8 1QQ
"Harman House, 1 George St, Uxbridge UB8 1QQ, United Kingdom ","Harman House, 1 ",", Uxbridge ",", Uxbridge", UB8 1QQ
"Harman House, 1 George St, Uxbridge UB8 1QQ, United Kingdom ","Harman House, 1 ",", Uxbridge ",", Uxbridge", UB8 1QQ
"3728 Phillips Hwy, Jacksonville, FL 32207, United States ","3728 Phillips Hwy, ",", Jacksonville,",", Jacksonville", FL 32207
"3728 Phillips Hwy, Jacksonville, FL 32207, United States ","3728 Phillips Hwy, ",", Jacksonville,",", Jacksonville", FL 32207
"Angel Building, The, 407 St John St, London EC1V 4EX, United Kingdom ","Angel Building, ",", London ",", United Kingdo", EC1V 4EX
"2200 Ross Ave 10th Floor, Dallas, TX 75201, United States ","2200 Ross Ave 10th Floor, ",", Dallas,",", United States", Ave 10th
"Norreys Dr, Maidenhead SL6 4BL, United Kingdom ","Norreys Dr, ",", Maidenhead ",", Maidenhead", SL6 4BL
"980 Great West Rd, London TW8 9GS, United Kingdom ","980 Great West Rd, ",", London ",", United Kingdo", TW8 9GS
"336 Rue St Honoré, 75001 Paris, France ","336 Rue St Honoré, 75001 ",", France ",,
"40 Rue de Sèvres, 75007 Paris, France ","40 Rue de Sèvres, 75007 ",", France ",,
"41 Bd des Capucines, 75002 Paris, France ","41 Bd des Capucines, 75002 ",", France ",,
"100 W 33rd St #1012, New York, NY 10001, United States ","100 W 33rd St #1012, ",", New York,",", United States", W 33rd
"120 Rue du Faubourg Saint-Honoré, 75008 Paris, France ","120 Rue du Faubourg Saint-Honoré, 75008 ",", France ",,
"611 5th Ave, New York, NY 10022, United States ","611 5th Ave, ",", New York,",", United States", NY 10022
"611 5th Ave, New York, NY 10022, United States ","611 5th Ave, ",", New York,",", United States", NY 10022
"9600 Wilshire Blvd, Beverly Hills, CA 90212, United States ","9600 Wilshire Blvd, ",", Beverly Hills",", Beverly", CA 90212
"3455 US-80, Jackson, MS 39209, United States ","3455 US-80, ",", Jackson,",", Jackson", MS 39209
"12801 W Sunrise Blvd, Sunrise, FL 33323, United States ","12801 W Sunrise Blvd, ",", Sunrise,",", Sunrise", FL 33323
"80 Rue Condorcet, Business Airport - Bâtiment Frégate, CS80612, 38906 Villefontaine, France ","80 Rue Condorcet, ",", Business Airpo",", Business Airpor",
"30 Enterprise Ave N, Secaucus, NJ 07094, United States ","30 Enterprise Ave N, ",", Secaucus,",", Secaucus", NJ 07094
"Mercedespl. 1, 34127 Kassel, Germany ","Mercedespl. 1, 34127 ",", Germany ",", Germany",
"Mercedesstraße 120, 70372 Stuttgart, Germany ","Mercedesstraße 120, 70372 ",", Germany ",", Germany",
"Daimlerstraße 143, 12277 Berlin, Germany ","Daimlerstraße 143, 12277 ",", Germany ",", Germany",
"Schadowstraße 17 - 21, 40212 Düsseldorf, Germany ","Schadowstraße 17 - 21, 40212 ",", Germany ",", Germany",
"Daimlerstraße 143, 12277 Berlin, Germany ","Daimlerstraße 143, 12277 ",", Germany ",", Germany",
"2477 Deerfield Dr, Fort Mill, SC 29715, United States ","2477 Deerfield Dr, ",", Fort Mill,",", United States", SC 29715
"4555 N Channel Ave, Portland, OR 97217, United States ","4555 N Channel Ave, ",", Portland,",", Portland", OR 97217
"2477 Deerfield Dr, Fort Mill, SC 29715, United States ","2477 Deerfield Dr, ",", Fort Mill,",", United States", SC 29715
"4555 N Channel Ave, Portland, OR 97217, United States ","4555 N Channel Ave, ",", Portland,",", Portland", OR 97217
"Mercedesstraße 120, 70372 Stuttgart, Germany ","Mercedesstraße 120, 70372 ",", Germany ",", Germany",
"Nürnberger Str. 2, 86156 Neusäß, Germany ","Nürnberger Str. 2, 86156 ",", Germany ",", Germany",
"Börsenstraße 1, 60313 Frankfurt am Main, Germany ","Börsenstraße 1, 60313 ",", Germany ",", Germany",
"93-95 Av. des Champs-Élysées, 75008 Paris, France ","93-95 Av. des Champs-Élysées, 75008 ",", France ",,
"215 Bd Pinel, 69008 Lyon, France ","215 Bd Pinel, 69008 ",", France ",,
"93-95 Av. des Champs-Élysées, 75008 Paris, France ","93-95 Av. des Champs-Élysées, 75008 ",", France ",,
"29 Rue Vieille du Temple, 75004 Paris, France ","29 Rue Vieille du Temple, 75004 ",", France ",,
"Leopoldstraße 160, 80804 München, Germany ","Leopoldstraße 160, 80804 ",", Germany ",", Germany",
"Club des Marques, 116 Bd de Dijon, 10800 Troyes, France ","Club des Marques, 116 ",", France ",,
"Leopoldstraße 160, 80804 München, Germany ","Leopoldstraße 160, 80804 ",", Germany ",", Germany",
"215 Bd Pinel, 69008 Lyon, France ","215 Bd Pinel, 69008 ",", France ",,
"C Cial. 3 Fontaines, Niveau 2, 95000 Cergy, France ","C Cial. 3 Fontaines, ",", Niveau ",," Niveau 2,"
"31 Rue Cambon, 75001 Paris, France ","31 Rue Cambon, 75001 ",", France ",,
"42 Rue de la République Printemps, 69002 Lyon, France ","42 Rue de la République Printemps, 69002 ",", France ",,
"159 New Bond St, London W1S 2UB, United Kingdom ","159 New Bond St, ",", London ",", United Kingdo", W1S 2UB
"159 New Bond St, London W1S 2UB, United Kingdom ","159 New Bond St, ",", London ",", United Kingdo", W1S 2UB
"31 Rue Cambon, 75001 Paris, France ","31 Rue Cambon, 75001 ",", France ",,
"31 Rue Cambon, 75001 Paris, France ","31 Rue Cambon, 75001 ",", France ",,
"31 Rue Cambon, 75001 Paris, France ","31 Rue Cambon, 75001 ",", France ",,
"31 Rue Cambon, 75001 Paris, France ","31 Rue Cambon, 75001 ",", France ",,
"135 Av. Charles de Gaulle, 92200 Neuilly-sur-Seine, France ","135 Av. Charles de Gaulle, 92200 ",", France ",,
"159 New Bond St, London W1S 2UB, United Kingdom ","159 New Bond St, ",", London ",", United Kingdo", W1S 2UB
"139 Spring St, SoHo, NY 10012, United States ","139 Spring St, ",", United State",", United States", NY 10012
"135 Av. Charles de Gaulle, 92200 Neuilly-sur-Seine, France ","135 Av. Charles de Gaulle, 92200 ",", France ",,
"31 Rue Cambon, 75001 Paris, France ","31 Rue Cambon, 75001 ",", France ",,
"31 Rue Cambon, 75001 Paris, France ","31 Rue Cambon, 75001 ",", France ",,
"31 Rue Cambon, 75001 Paris, France ","31 Rue Cambon, 75001 ",", France ",,
"31 Rue Cambon, 75001 Paris, France ","31 Rue Cambon, 75001 ",", France ",,
"46 Penston Rd, Glasgow G33 4AG, United Kingdom ","46 Penston Rd, ",", Glasgow ",", Glasgow", G33 4AG
"2 Rte Neuve, 50890 Condé-sur-Vire, France ","2 Rte Neuve, 50890 ",", France ",,
"2 S Gyle Broadway, South Gyle, Edinburgh EH12 9JZ, United Kingdom ","2 S Gyle Broadway, ",", South Gyle,",", Edinburgh", EH12 9JZ
"40 Rue de Sèvres, 75007 Paris, France ","40 Rue de Sèvres, 75007 ",", France ",,
"Klingenhofstraße 70, 90411 Nürnberg, Germany ","Klingenhofstraße 70, 90411 ",", Germany ",", Germany",
"342 Ladbroke Grove, London W10 5BU, United Kingdom ","342 Ladbroke Grove, ",", London ",", United Kingdo", W10 5BU
"10 Lyberty Way, Westford, MA 01886, United States ","10 Lyberty Way, ",", Westford,",", Westford", MA 01886
"Klingenhofstraße 70, 90411 Nürnberg, Germany ","Klingenhofstraße 70, 90411 ",", Germany ",", Germany",
"222 Yale Ave N, Seattle, WA 98109, United States ","222 Yale Ave N, ",", Seattle,",", Seattle", WA 98109
"87 Rue Franz Liszt, 73000 Chambéry, France ","87 Rue Franz Liszt, 73000 ",", France ",,
"14 Rue Jean Bocq, 38000 Grenoble, France ","14 Rue Jean Bocq, 38000 ",", France ",,
"87 Rue Franz Liszt, 73000 Chambéry, France ","87 Rue Franz Liszt, 73000 ",", France ",,
"22833 SE Black Nugget Rd, Issaquah, WA 98029, United States ","22833 SE Black Nugget Rd, ",", Issaquah,",", Issaquah", WA 98029
"22833 SE Black Nugget Rd, Issaquah, WA 98029, United States ","22833 SE Black Nugget Rd, ",", Issaquah,",", Issaquah", WA 98029
"1551 Wewatta St, Denver, CO 80202, United States ","1551 Wewatta St, ",", Denver,",", United States", CO 80202
"2 Experian Way, Nottingham NG2 1EP, United Kingdom ","2 Experian Way, ",", Nottingham ",", Nottingham", NG2 1EP
"Alexandra House, Lawnswood Business Park, Leeds LS16 6QY, United Kingdom ","Alexandra House, ",", Lawnswood Busin",", Lawnswood Busine", LS16 6QY
"15700 Shoemaker Ave, Santa Fe Springs, CA 90670, United States ","15700 Shoemaker Ave, ",", Santa ",", United States", CA 90670
"109-125 Knightsbridge, London SW1X 7RJ, United Kingdom ","109-125 Knightsbridge, ",", London ",", United Kingdo", SW1X 7RJ
"210 11th Ave, New York, NY 10001, United States ","210 11th Ave, ",", New York,",", United States", NY 10001
"Desford Rd, Enderby, Leicester LE19 4AT, United Kingdom ","Desford Rd, ",", Enderby,",", Enderby, Leices", LE19 4AT
"Desford Rd, Enderby, Leicester LE19 4AT, United Kingdom ","Desford Rd, ",", Enderby,",", Enderby, Leices", LE19 4AT
"Desford Rd, Enderby, Leicester LE19 4AT, United Kingdom ","Desford Rd, ",", Enderby,",", Enderby, Leices", LE19 4AT
"UNIT MSU8, Bath House Ln, Highcross St, Leicester LE1 4SA, United Kingdom ","UNIT MSU8, ",", Bath House",", Highcross", LE1 4SA
"Ascheröder Str. 57, 34613 Schwalmstadt, Germany ","Ascheröder Str. 57, 34613 ",", Germany ",", Germany",
"38123 W 10 Mile Rd, Farmington Hills, MI 48335, United States ","38123 W 10 Mile Rd, ",", Farmington Hills",", Farmington", W 10
"25 Av. Rapp, 75007 Paris, France ","25 Av. Rapp, 75007 ",", France ",,
"1000 Chrysler Dr, Auburn Hills, MI 48326, United States ","1000 Chrysler Dr, ",", Auburn Hills",", United States", MI 48326
"81 Rue Marietton, 69009 Lyon, France ","81 Rue Marietton, 69009 ",", France ",,
"1000 Chrysler Dr, Auburn Hills, MI 48326, United States ","1000 Chrysler Dr, ",", Auburn Hills",", United States", MI 48326
"300 SE Delaware Ave, Ankeny, IA 50021, United States ","300 SE Delaware Ave, ",", Ankeny,",", United States", IA 50021
"541 N 155th Plaza, Omaha, NE 68154, United States ","541 N 155th Plaza, ",", Omaha,",", United States", N 155th
"2501 Hudson Rd, Maplewood, MN 55144, United States ","2501 Hudson Rd, ",", Maplewood,",", Maplewood", MN 55144
"275 Market St, Minneapolis, MN 55405, United States ","275 Market St, ",", Minneapolis,",", Minneapolis", MN 55405
"299 Park Ave 10th Floor, New York, NY 10171, United States ","299 Park Ave 10th Floor, ",", New York,",", United States", Ave 10th
"2300 Orchard Pkwy, San Jose, CA 95131, United States ","2300 Orchard Pkwy, ",", San Jose,",", United States", CA 95131
"Head of History Theory, Holcroft Court, Clipstone St, London W1W 5DJ, United Kingdom ","Head of History Theory, ",", Holcroft Court",", Holcroft", W1W 5DJ
"1 AAR Way Suite 101, Rockledge, FL 32955, United States ","1 AAR Way Suite 101, ",", Rockledge,",", Rockledge", Suite 101
"11270 W Park Pl #170, Milwaukee, WI 53224, United States ","11270 W Park Pl #170, ",", Milwaukee,",", Milwaukee", WI 53224
"400 E Jamie Ct, South San Francisco, CA 94080, United States ","400 E Jamie Ct, ",", South ",", United States", CA 94080
"22 Cherry Hill Dr, Danvers, MA 01923, United States ","22 Cherry Hill Dr, ",", Danvers,",", Danvers", MA 01923
"Level 39, One Canada Square, London E14 5AB, United Kingdom ","Level 39, ",", One Canad",", One Canada", E14 5AB
"1615 S Lakeside Dr, Waukegan, IL 60085, United States ","1615 S Lakeside Dr, ",", Waukegan,",", Waukegan", IL 60085
"128 Sidney St, Cambridge, MA 02139, United States ","128 Sidney St, ",", Cambridge,",", Cambridge", MA 02139
"210 N Walton Blvd # 24, Bentonville, AR 72712, United States ","210 N Walton Blvd # 24, ",", Bentonville,",", Bentonville", AR 72712
"75 Mayhill St, Saddle Brook, NJ 07663, United States ","75 Mayhill St, ",", Saddle Brook",", United States", NJ 07663
"4 Corporate Dr, Lake Zurich, IL 60047, United States ","4 Corporate Dr, ",", Lake Zuric",", Lake Zurich", IL 60047
"5601 N MacArthur Blvd, Irving, TX 75038, United States ","5601 N MacArthur Blvd, ",", Irving,",", United States", TX 75038
"345 Park Ave, San Jose, CA 95110, United States ","345 Park Ave, ",", San Jose,",", United States", CA 95110
"4640 Trueman Blvd, Hilliard, OH 43026, United States ","4640 Trueman Blvd, ",", Hilliard,",", Hilliard", OH 43026
"4640 Trueman Blvd, Hilliard, OH 43026, United States ","4640 Trueman Blvd, ",", Hilliard,",", Hilliard", OH 43026
"550 Hills Dr 3rd floor, Bedminster, NJ 07921, United States ","550 Hills Dr 3rd floor, ",", Bedminster,",", Bedminster", Dr 3rd
"1 Lochside Cres, Edinburgh EH12 9SE, United Kingdom ","1 Lochside Cres, ",", Edinburgh ",", Edinburgh", EH12 9SE
"1101 Marina Village Pkwy Suite 201, Alameda, CA 94501, United States ","1101 Marina Village Pkwy Suite 201, ",", Alameda,",", Alameda", Suite 201
"4205 River Green Pkwy, Duluth, GA 30096, United States ","4205 River Green Pkwy, ",", Duluth,",", United States", GA 30096
"7 Isham Rd, London SW16 4TH, United Kingdom ","7 Isham Rd, ",", London ",", United Kingdo", SW16 4TH
"91 Blue Ravine Rd, Folsom, CA 95630, United States ","91 Blue Ravine Rd, ",", Folsom,",", United States", CA 95630
"840 Larrabee St, West Hollywood, CA 90069, United States ","840 Larrabee St, ",", West Holly",", West Hollyw", CA 90069
"Ten Post Office Square, Boston, MA 02109, United States ","Ten Post Office Square, ",", Boston,",", United States", MA 02109
"Unit 3, Vauxhall Supply Park, North Rd, Ellesmere Port CH65 1BL, United Kingdom ","Unit 3, ",", Vauxhall Suppl",", Vauxhall Supply", CH65 1BL
"25 Canada Square, London E14 5LQ, United Kingdom ","25 Canada Square, ",", London ",", United Kingdo", E14 5LQ
"1 Executive Park Dr # 202, Newton, MA 02462, United States ","1 Executive Park Dr # 202, ",", Newton,",", United States", MA 02462
"2820 Orchard Pkwy, San Jose, CA 95134, United States ","2820 Orchard Pkwy, ",", San Jose,",", United States", CA 95134
"10002 E 43rd St, Tulsa, OK 74146, United States ","10002 E 43rd St, ",", Tulsa,",", United States", E 43rd
"188 E Blaine St, Seattle, WA 98102, United States ","188 E Blaine St, ",", Seattle,",", Seattle", WA 98102
"985 Broadway STE J, Chula Vista, CA 91911, United States ","985 Broadway STE J, ",", Chula Vista",", United States", CA 91911
"910 Clopper Rd, Gaithersburg, MD 20878, United States ","910 Clopper Rd, ",", Gaithersburg,",", Gaithersburg", MD 20878
"4225 Executive Square level 7, La Jolla, CA 92037, United States ","4225 Executive Square level 7, ",", La Jolla",", United States"," level 7,"
"6601 W Broad St, Richmond, VA 23230, United States","6601 W Broad St, ",", Richmond,",", Richmond", VA 23230
"Brunel House, 2 Fitzalan Rd, Cardiff CF24 0EB, United Kingdom ","Brunel House, 2 ",", Cardiff ",", Cardiff", CF24 0EB
"825-829 Lincoln Rd, Miami Beach, FL 33139, United States ","825-829 Lincoln Rd, ",", Miami Beach",", United States", FL 33139
"5636 Bridgetown Rd UNIT 7, Cincinnati, OH 45248, United States ","5636 Bridgetown Rd UNIT 7, ",", Cincinnati,",", Cincinnati"," UNIT 7,"
"501 Patriot Pkwy, Roanoke, TX 76262, United States ","501 Patriot Pkwy, ",", Roanoke,",", Roanoke", TX 76262
"11200 N Congress Ave, Kansas City, MO 64153, United States ","11200 N Congress Ave, ",", Kansas City,",", United States", MO 64153
"City Center Dr, Lenexa, KS 66219, United States ","City Center Dr, ",", Lenexa,",", United States", KS 66219
"Unit 4, Washford Retail and Trade Park, Park Farm Industrial Estate, Redditch B98 0GZ, United Kingdom ","Unit 4, ",", Washford Retai",", Washford Retail", B98 0GZ
"3 Columbus Cir, New York, NY 10019, United States ","3 Columbus Cir, ",", New York,",", United States", NY 10019
"7950 Jones Branch Dr, McLean, VA 22102, United States ","7950 Jones Branch Dr, ",", McLean,",", United States", VA 22102
"15504 Industrial Pkwy, Cleveland, OH 44135, United States ","15504 Industrial Pkwy, ",", Cleveland,",", Cleveland", OH 44135
"12770 High Bluff Dr, San Diego, CA 92130, United States ","12770 High Bluff Dr, ",", San Diego",", United States", CA 92130
"2500 Peru Dr, McCarran, NV 89434, United States ","2500 Peru Dr, ",", McCarran,",", McCarran", NV 89434
"49 W 45th St, New York, NY 10036, United States","49 W 45th St, ",", New York,",", United States", W 45th
"2345 Grand Blvd #900, Kansas City, MO 64108, United States ","2345 Grand Blvd #900, ",", Kansas City,",", United States", MO 64108
"34175 Ardenwood Blvd, Fremont, CA 94555, United States ","34175 Ardenwood Blvd, ",", Fremont,",", Fremont", CA 94555
"2000 Avenue of the Stars STE 1200, Los Angeles, CA 90067, United States ","2000 Avenue of the Stars STE 1200, ",", Los Angel",", Los Angele", STE 1200
"3 More London Riverside, London SE1 2RE, United Kingdom ","3 More London Riverside, ",", London ",", United Kingdo", SE1 2RE
"3 More London Riverside, London SE1 2RE, United Kingdom ","3 More London Riverside, ",", London ",", United Kingdo", SE1 2RE
"315 E 56th St, New York, NY 10022, United States ","315 E 56th St, ",", New York,",", United States", E 56th
"38 Rue Victor Hugo, 92400 Courbevoie, France ","38 Rue Victor Hugo, 92400 ",", France ",,
"2905 Premiere Pkwy #300, Duluth, GA 30097, United States ","2905 Premiere Pkwy #300, ",", Duluth,",", United States", GA 30097
"1797 Founders Pkwy, Alpharetta, GA 30009, United States ","1797 Founders Pkwy, ",", Alpharetta,",", Alpharetta", GA 30009
"500 Emerson St, Palo Alto, CA 94301, United States ","500 Emerson St, ",", Palo Alto,",", United States", CA 94301
"2801 S Christopher Columbus Blvd, Philadelphia, PA 19148, United States ","2801 S Christopher Columbus Blvd, ",", Philadelphia,",", Philadelphia", PA 19148
"30 Forbes Rd, Northborough, MA 01532, United States ","30 Forbes Rd, ",", Northborough,",", Northborough", MA 01532
"11222 Quail Roost Dr, Miami, FL 33157, United States ","11222 Quail Roost Dr, ",", Miami,",", United States", FL 33157
"701 N US 75-Central Expy 1000 Ste 400, Plano, TX 75075, United States ","701 N US 75-Central Expy 1000 Ste 400, ",", Plano,",", United States", US 75
"1050 Connecticut Ave NW, Washington, DC 20036, United States ","1050 Connecticut Ave NW, ",", Washington,",", Washington", DC 20036
"1A Burton Hills Blvd, Nashville, TN 37215, United States ","1A Burton Hills Blvd, ",", Nashville,",", Nashville", TN 37215
"311 Arsenal St, Watertown, MA 02472, United States ","311 Arsenal St, ",", Watertown,",", Watertown", MA 02472
"59 Maiden Ln, New York, NY 10038, United States ","59 Maiden Ln, ",", New York,",", United States", NY 10038
"2475 Paseo De Las Americas # A, San Diego, CA 92154, United States ","2475 Paseo De Las Americas # A, ",", San Diego",", United States", CA 92154
"Cobham House, 20 Black Friars Ln, London EC4V 6EB, United Kingdom ","Cobham House, 20 ",", London ",", United Kingdo", EC4V 6EB
"2025 McKenzie Dr # 100, Carrollton, TX 75006, United States ","2025 McKenzie Dr # 100, ",", Carrollton,",", Carrollton", TX 75006
"225 E 43rd St, New York, NY 10017, United States ","225 E 43rd St, ",", New York,",", United States", E 43rd
"6700 W Morelos Pl, Chandler, AZ 85226, United States ","6700 W Morelos Pl, ",", Chandler,",", Chandler", AZ 85226
"Spinners Cl, Mansfield NG19 6QJ, United Kingdom ","Spinners Cl, ",", Mansfield ",", Mansfield", NG19 6QJ
"4617 W Gate City Blvd # L, Greensboro, NC 27407, United States ","4617 W Gate City Blvd # L, ",", Greensboro,",", Greensboro", NC 27407
"Tour Majunga La Défense, 6 Pl. de la Pyramide, 92800 Puteaux, France ","Tour Majunga La Défense, 6 ",", France ",,
"HG Plaza, No 223/A, Konappana Agrahara, Electronic City, Bengaluru, Karnataka 560100 ","HG Plaza, ",", Konappana Agrah",", Konappana Agraha", No 223
"9200 W 108th Cir, Westminster, CO 80021, United States ","9200 W 108th Cir, ",", Westminster,",", Westminster", W 108th
"156 Cherry St, New Canaan, CT 06840, United States ","156 Cherry St, ",", New Canaa",", New Canaan", CT 06840
"270 Federal Rd, Brookfield, CT 06804, United States ","270 Federal Rd, ",", Brookfield,",", Brookfield", CT 06804
"1511 US-22, Watchung, NJ 07069, United States ","1511 US-22, ",", Watchung,",", Watchung", NJ 07069
"10011 E 71st St, Tulsa, OK 74133, United States ","10011 E 71st St, ",", Tulsa,",", United States", E 71st
"8100 Old Carriage Ct, Shakopee, MN 55379, United States ","8100 Old Carriage Ct, ",", Shakopee,",", Shakopee", MN 55379
"1561 S Randall Rd, Algonquin, IL 60102, United States ","1561 S Randall Rd, ",", Algonquin,",", Algonquin", IL 60102
"Gloster Ct, Fareham PO15 5SH, United Kingdom ","Gloster Ct, ",", Fareham ",", Fareham", PO15 5SH
"1617 Waterfront Suite #110, Wichita, KS 67206, United States ","1617 Waterfront Suite #110, ",", Wichita,",", Wichita", KS 67206
"2837 Winchester Pike, Columbus, OH 43232, United States","2837 Winchester Pike, ",", Columbus,",", Columbus", OH 43232
"4900 E Dublin Granville Rd, Westerville, OH 43081, United States ","4900 E Dublin Granville Rd, ",", Westerville,",", Westerville", OH 43081
"9955 Mesa Rim Rd, San Diego, CA 92121, United States ","9955 Mesa Rim Rd, ",", San Diego",", United States", CA 92121
"330 Cambridge Science Park Milton Rd, Milton, Cambridge CB4 0PZ, United Kingdom ","330 Cambridge Science Park Milton Rd, ",", Milton,",", Milton, Cambri", CB4 0PZ
"770 Lindaro St, San Rafael, CA 94901, United States ","770 Lindaro St, ",", San Rafae",", San Rafael", CA 94901
"Ground Floor, Regent House, 65 Rodney Rd, Cheltenham GL50 1HX, United Kingdom ","Ground Floor, ",", Regent House",", Cheltenham", GL50 1HX
"Drapers Gardens, 12 Throgmorton Ave, London EC2N 2DL, United Kingdom ","Drapers Gardens, 12 ",", London ",", United Kingdo", EC2N 2DL
"NESCO IT Park, NESCO, III, Mumbai, Maharashtra 400063 ","NESCO IT Park, ",", NESCO,",", III, Mumbai", Maharashtra 400063
"Frauenlobstraße 2, 80337 München, Germany ","Frauenlobstraße 2, 80337 ",", Germany ",", Germany",
"60 Binney St, Cambridge, MA 02142, United States ","60 Binney St, ",", Cambridge,",", Cambridge", MA 02142
"60 Binney St, Cambridge, MA 02142, United States ","60 Binney St, ",", Cambridge,",", Cambridge", MA 02142
"300 E John Carpenter Fwy STE 504, Irving, TX 75062, United States ","300 E John Carpenter Fwy STE 504, ",", Irving,",", United States", STE 504
"7755 E Marginal Way S, Seattle, WA 98108, United States ","7755 E Marginal Way S, ",", Seattle,",", Seattle", WA 98108
"100 North Riverside, Chicago, IL 60606, United States ","100 North Riverside, ",", Chicago,",", Chicago", IL 60606
"Drydock Ave, Boston, MA 02210, United States ","Drydock Ave, ",", Boston,",", United States", MA 02210
"32059 Schoolcraft Rd, Livonia, MI 48150, United States ","32059 Schoolcraft Rd, ",", Livonia,",", Livonia", MI 48150
"3850 Hamlin Rd, Auburn Hills, MI 48326, United States ","3850 Hamlin Rd, ",", Auburn Hills",", United States", MI 48326
"1849 Brevard Rd, Arden, NC 28704, United States ","1849 Brevard Rd, ",", Arden,",", United States", NC 28704
"6655 Wedgwood Rd N, Osseo, MN 55311, United States ","6655 Wedgwood Rd N, ",", Osseo,",", United States", MN 55311
"Breakspear Park, Breakspear Way, Hemel Hempstead HP2 4TZ, United Kingdom ","Breakspear Park, ",", Breakspear ",", Breakspear", HP2 4TZ
"Kaiserstraße 2, 67292 Kirchheimbolanden, Germany ","Kaiserstraße 2, 67292 ",", Germany ",", Germany",
"311 Pennington Rocky Hill Rd, Pennington, NJ 08534, United States ","311 Pennington Rocky Hill Rd, ",", Pennington,",", Pennington", NJ 08534
"3151 Briarpark Drive, Suite 700, in, Houston, TX 77042, United States ","3151 Briarpark Drive, ",", Suite ",", in, Housto", Suite 700
"One The Braccans, London Rd, Bracknell RG12 2XH, United Kingdom ","One The Braccans, ",", London ",", Bracknell", RG12 2XH
"2600 Southwest Blvd, Kansas City, MO 64108, United States ","2600 Southwest Blvd, ",", Kansas City,",", United States", MO 64108
"51 Mercedes Way, Brentwood, NY 11717, United States ","51 Mercedes Way, ",", Brentwood,",", Brentwood", NY 11717
"42 Broadway, New York, NY 10004, United States ","42 Broadway, ",", New York,",", United States", NY 10004
"15101 Alton Pkwy, Irvine, CA 92618, United States ","15101 Alton Pkwy, ",", Irvine,",", United States", CA 92618
"2921 Dixie Hwy, Louisville, KY 40216, United States ","2921 Dixie Hwy, ",", Louisville,",", Louisville", KY 40216
"300 N LaSalle Dr #2260, Chicago, IL 60654, United States ","300 N LaSalle Dr #2260, ",", Chicago,",", Chicago", IL 60654
"Salts Mill, Victoria Rd, Shipley BD18 3LF, United Kingdom ","Salts Mill, ",", Victoria ",", Victoria", BD18 3LF
"1 Mine Rd, Kellogg, ID 83837, United States ","1 Mine Rd, ",", Kellogg,",", Kellogg", ID 83837
"300 N LaSalle Dr #2260, Chicago, IL 60654, United States ","300 N LaSalle Dr #2260, ",", Chicago,",", Chicago", IL 60654
"6260 Washington St, Denver, CO 80216, United States","6260 Washington St, ",", Denver,",", United States", CO 80216
"6260 Washington St, Denver, CO 80216, United States","6260 Washington St, ",", Denver,",", United States", CO 80216
"2051 Enterprise Dr, De Pere, WI 54115, United States ","2051 Enterprise Dr, ",", De Pere,",", United States", WI 54115
"210 E Earll Dr, Phoenix, AZ 85012, United States ","210 E Earll Dr, ",", Phoenix,",", Phoenix", AZ 85012
"2900 Bristol St, Costa Mesa, CA 92626, United States ","2900 Bristol St, ",", Costa Mesa,",", United States", CA 92626
"200 Neville Rd #1, Pittsburgh, PA 15225, United States ","200 Neville Rd #1, ",", Pittsburgh,",", Pittsburgh", PA 15225
"1720 N 1st St, San Jose, CA 95112, United States ","1720 N 1st St, ",", San Jose,",", United States", N 1st
"13111 Broadway Extension Hwy, Oklahoma City, OK 73114, United States ","13111 Broadway Extension Hwy, ",", Oklahoma City,",", Oklahoma", OK 73114
"1 Campbell Pl, Camden, NJ 08103, United States ","1 Campbell Pl, ",", Camden,",", United States", NJ 08103
"3201 S Walton Blvd, Bentonville, AR 72712, United States ","3201 S Walton Blvd, ",", Bentonville,",", Bentonville", AR 72712
"5855 Green Valley Cir #101, Culver City, CA 90230, United States ","5855 Green Valley Cir #101, ",", Culver City,",", United States", CA 90230
"500 NW Loop 286, Paris, TX 75460, United States ","500 NW Loop 286, ",", Paris,",", United States", Loop 286
"2330 Circadian Way, Santa Rosa, CA 95407, United States ","2330 Circadian Way, ",", Santa Rosa,",", United States", CA 95407
"Trump Bldg, 44 Wall St # 12, New York, NY 10005, United States ","Trump Bldg, 44 ",", New York,",", United States", NY 10005
"Trump Bldg, 44 Wall St # 12, New York, NY 10005, United States ","Trump Bldg, 44 ",", New York,",", United States", NY 10005
"10211 River Rd, Potomac, MD 20854, United States ","10211 River Rd, ",", Potomac,",", Potomac", MD 20854
"400 L St, Sacramento, CA 95814, United States ","400 L St, ",", Sacramento,",", Sacramento", CA 95814
"1 Tower Pl 9th floor, South San Francisco, CA 94080, United States ","1 Tower Pl 9th floor, ",", South ",", United States", Pl 9th
"24 Pl. Vendôme, 75001 Paris, France ","24 Pl. Vendôme, 75001 ",", France ",,
"4930 Oakton St, Skokie, IL 60077, United States ","4930 Oakton St, ",", Skokie,",", United States", IL 60077
"1215 Ernest W Barrett Pkwy NW, Kennesaw, GA 30144, United States ","1215 Ernest W Barrett Pkwy NW, ",", Kennesaw,",", Kennesaw", GA 30144
"4040 Embassy Pkwy #100, Akron, OH 44333, United States ","4040 Embassy Pkwy #100, ",", Akron,",", United States", OH 44333
"51 W 52nd St, New York, NY 10019, United States ","51 W 52nd St, ",", New York,",", United States", W 52nd
"4200 Radford Ave, Studio City, CA 91604, United States ","4200 Radford Ave, ",", Studio City,",", United States", CA 91604
"1950 Hassell Rd, Hoffman Estates, IL 60169, United States ","1950 Hassell Rd, ",", Hoffman Estat",", Hoffman Estate", IL 60169
"S Macadam Ave, Portland, OR 97219, United States ","S Macadam Ave, ",", Portland,",", Portland", OR 97219
"9503 E 33rd St, Indianapolis, IN 46235, United States ","9503 E 33rd St, ",", Indianapolis,",", Indianapolis", E 33rd
"3520 Virginia Ave, Narrows, VA 24124, United States ","3520 Virginia Ave, ",", Narrows,",", Narrows", VA 24124
"215 W 125th St, New York, NY 10027, United States ","215 W 125th St, ",", New York,",", United States", W 125th
"1340 Treat Blvd #600, Walnut Creek, CA 94597, United States ","1340 Treat Blvd #600, ",", Walnut Creek",", United States", CA 94597
"1340 Treat Blvd #600, Walnut Creek, CA 94597, United States ","1340 Treat Blvd #600, ",", Walnut Creek",", United States", CA 94597
"S Albion St, Denver, CO 80222, United States ","S Albion St, ",", Denver,",", United States", CO 80222
"1220 Concord Ave Suite 600, Concord, CA 94520, United States ","1220 Concord Ave Suite 600, ",", Concord,",", Concord", Suite 600
"6050 Greenwood Plaza Blvd #125, Greenwood Village, CO 80111, United States ","6050 Greenwood Plaza Blvd #125, ",", Greenwood Villa",", Greenwood Villag", CO 80111
"2800 Rock Creek Pkwy, Kansas City, MO 64117, United States ","2800 Rock Creek Pkwy, ",", Kansas City,",", United States", MO 64117
"2800 Rock Creek Pkwy, Kansas City, MO 64117, United States ","2800 Rock Creek Pkwy, ",", Kansas City,",", United States", MO 64117
"611 William Penn Pl #1200, Pittsburgh, PA 15219, United States ","611 William Penn Pl #1200, ",", Pittsburgh,",", Pittsburgh", PA 15219
"2200 Airport Industrial Dr Suite 100, Ball Ground, GA 30107, United States ","2200 Airport Industrial Dr Suite 100, ",", Ball Groun",", Ball Ground", Suite 100
"700 Milam St #1900, Houston, TX 77002, United States ","700 Milam St #1900, ",", Houston,",", Houston", TX 77002
"220 E St NE, Washington, DC 20002, United States ","220 E St NE, ",", Washington,",", Washington", DC 20002
"7315 Range Rd, Stillwater, OK 74074, United States","7315 Range Rd, ",", Stillwater,",", Stillwater", OK 74074
"902 Broadway 9th floor, New York, NY 10010, United States ","902 Broadway 9th floor, ",", New York,",", United States", Broadway 9th
"500 Charles Ewing Blvd, Ewing Township, NJ 08628, United States ","500 Charles Ewing Blvd, ",", Ewing Towns",", Ewing Townsh", NJ 08628
"11331 Tanner Rd, Houston, TX 77041, United States ","11331 Tanner Rd, ",", Houston,",", Houston", TX 77041
"1 Choice Hotels Cir Suite 400, Rockville, MD 20850, United States ","1 Choice Hotels Cir Suite 400, ",", Rockville,",", Rockville", Suite 400
"16215 Marshall St, Tulsa, OK 74116, United States ","16215 Marshall St, ",", Tulsa,",", United States", OK 74116
"7750 Daresbury Business Park Daresbury Office Village Cheshire, Warrington WA4 4BS, United Kingdom ","7750 Daresbury Business Park Daresbury Office Village Cheshire, ",", Warrington ",", Warrington", WA4 4BS
"2200 SE 28th St, Bentonville, AR 72712, United States ","2200 SE 28th St, ",", Bentonville,",", Bentonville", SE 28th
"3728 Bronson Blvd, Kalamazoo, MI 49008, United States ","3728 Bronson Blvd, ",", Kalamazoo,",", Kalamazoo", MI 49008
"19805 N Creek Pkwy, Bothell, WA 98011, United States ","19805 N Creek Pkwy, ",", Bothell,",", Bothell", WA 98011
"12367 Crosthwaite Cir, Poway, CA 92064, United States ","12367 Crosthwaite Cir, ",", Poway,",", United States", CA 92064
"100 Technology Center Dr #300, Stoughton, MA 02072, United States ","100 Technology Center Dr #300, ",", Stoughton,",", Stoughton", MA 02072
"205 Crosspoint Pkwy, Getzville, NY 14068, United States ","205 Crosspoint Pkwy, ",", Getzville,",", Getzville", NY 14068
"10900 Red Cir Dr, Minnetonka, MN 55343, United States ","10900 Red Cir Dr, ",", Minnetonka,",", Minnetonka", MN 55343
"Langendorfer Str. 23, 06667 Weißenfels, Germany ","Langendorfer Str. 23, 06667 ",", Germany ",", Germany",
"13540 University Blvd, Sugar Land, TX 77479, United States ","13540 University Blvd, ",", Sugar Land,",", United States", TX 77479
"2401 Elliott Ave, Seattle, WA 98121, United States ","2401 Elliott Ave, ",", Seattle,",", Seattle", WA 98121
"1290 6th Ave, New York, NY 10104, United States ","1290 6th Ave, ",", New York,",", United States", NY 10104
"Croft Rd, Bingley BD16 2UA, United Kingdom ","Croft Rd, ",", Bingley ",", Bingley", BD16 2UA
"125 S Broad St, Fremont, NE 68025, United States ","125 S Broad St, ",", Fremont,",", Fremont", NE 68025
"1310 Point St, Baltimore, MD 21231, United States","1310 Point St, ",", Baltimore,",", Baltimore", MD 21231
"3001 Hackberry Rd, Irving, TX 75063, United States ","3001 Hackberry Rd, ",", Irving,",", United States", TX 75063
"701 Lima Ave, Findlay, OH 45840, United States ","701 Lima Ave, ",", Findlay,",", Findlay", OH 45840
"1219 W 135th St, Gardena, CA 90247, United States ","1219 W 135th St, ",", Gardena,",", Gardena", W 135th
"1219 W 135th St, Gardena, CA 90247, United States ","1219 W 135th St, ",", Gardena,",", Gardena", W 135th
"556 Metroplex Dr, Nashville, TN 37211, United States ","556 Metroplex Dr, ",", Nashville,",", Nashville", TN 37211
"Golf View Corporate Tower, Ground floor,Wing-A, A, Golf Course Rd, Sector 42, Gurugram, Haryana 122002 ","Golf View Corporate Tower, ",", Ground floor",", Golf Course", Sector 42
"10401 Research Blvd, Austin, TX 78759, United States ","10401 Research Blvd, ",", Austin,",", United States", TX 78759
"14 Rue du 4 septembre, 75002 Paris, France","14 Rue du 4 septembre, 75002 ",", France",, du 4 se
"Painters Hall Chambers, 8, Little Trinity Lane, London EC4V 2AN, United Kingdom ","Painters Hall Chambers, 8",", Little Trini",", Little Trinit", EC4V 2AN
"1655 Roberts Blvd, Kennesaw, GA 30144, United States ","1655 Roberts Blvd, ",", Kennesaw,",", Kennesaw", GA 30144
"900 Ashwood Pkwy #600, Atlanta, GA 30338, United States ","900 Ashwood Pkwy #600, ",", Atlanta,",", Atlanta", GA 30338
"3101 Western Ave #800, Seattle, WA 98121, United States ","3101 Western Ave #800, ",", Seattle,",", Seattle", WA 98121
"7209 US-158, Stokesdale, NC 27357, United States ","7209 US-158, ",", Stokesdale,",", Stokesdale", NC 27357
"9233 Balboa Ave, San Diego, CA 92123, United States ","9233 Balboa Ave, ",", San Diego",", United States", CA 92123
"27271 Las Ramblas, Mission Viejo, CA 92691, United States ","27271 Las Ramblas, ",", Mission Viejo",", Mission", CA 92691
"5 Carlisle Rd, Westford, MA 01886, United States ","5 Carlisle Rd, ",", Westford,",", Westford", MA 01886
"6751 North Fwy, Fort Worth, TX 76131, United States ","6751 North Fwy, ",", Fort Worth",", United States", TX 76131
"10192 Dowden Rd, Orlando, FL 32832, United States ","10192 Dowden Rd, ",", Orlando,",", Orlando", FL 32832
"2200 Pennsylvania Avenue NW Suite 800W, Washington, DC 20037, United States ","2200 Pennsylvania Avenue NW Suite 800W, ",", Washington,",", Washington", Suite 800W
"6645 185th Ave NE #100, Redmond, WA 98052, United States ","6645 185th Ave NE #100, ",", Redmond,",", Redmond", WA 98052
"2200 Pennsylvania Avenue NW Suite 800W, Washington, DC 20037, United States ","2200 Pennsylvania Avenue NW Suite 800W, ",", Washington,",", Washington", Suite 800W
"The Hangar, Business Park, Hatfield AL10 9AX, United Kingdom ","The Hangar, ",", Business Park,",", Business", AL10 9AX
"7777 E Apache St, Tulsa, OK 74115, United States ","7777 E Apache St, ",", Tulsa,",", United States", OK 74115
"1030 Delta Blvd, Atlanta, GA 30354, United States ","1030 Delta Blvd, ",", Atlanta,",", Atlanta", GA 30354
"Science Park Square, Brighton BN1 9SB, United Kingdom ","Science Park Square, ",", Brighton ",", Brighton", BN1 9SB
"Oranienburger Str. 70, 10117 Berlin, Germany ","Oranienburger Str. 70, 10117 ",", Germany ",", Germany",
"5100 E Skelly Dr #300, Tulsa, OK 74135, United States ","5100 E Skelly Dr #300, ",", Tulsa,",", United States", OK 74135
"Ocean Village Innovation Centre, Ocean Way, Southampton SO14 3JZ, United Kingdom ","Ocean Village Innovation Centre, ",", Ocean ",", Southampton", SO14 3JZ
"801 Main Ave, Norwalk, CT 06851, United States","801 Main Ave, ",", Norwalk,",", Norwalk", CT 06851
"10600 W Charleston Blvd, Las Vegas, NV 89135, United States ","10600 W Charleston Blvd, ",", Las Vegas",", United States", NV 89135
"1 Fall Creek Dr, Branson, MO 65616, United States ","1 Fall Creek Dr, ",", Branson,",", Branson", MO 65616
"347 Washington Rd, Washington, PA 15301, United States ","347 Washington Rd, ",", Washington,",", Washington", PA 15301
"1081 19th St, Virginia Beach, VA 23451, United States ","1081 19th St, ",", Virginia Beach",", Virginia", VA 23451
"Womens Cooperative Housing Society, Plot No:5 Road No: 2, Banjara Hills, Hyderabad, Telangana 500034 ","Womens Cooperative Housing Society, ",", Banjara Hills",", Banjara", Telangana 500034
"1635 NE 53rd Ave, Des Moines, IA 50313, United States ","1635 NE 53rd Ave, ",", Des Moine",", Des Moines", NE 53rd
"2304 Century Center Blvd, Irving, TX 75062, United States ","2304 Century Center Blvd, ",", Irving,",", United States", TX 75062
"6301 Winchester Ave, Kansas City, MO 64133, United States ","6301 Winchester Ave, ",", Kansas City,",", United States", MO 64133
"1601 Trapelo Rd #116, Waltham, MA 02451, United States ","1601 Trapelo Rd #116, ",", Waltham,",", Waltham", MA 02451
"1 Ebix Way, Johns Creek, GA 30097, United States ","1 Ebix Way, ",", Johns Creek",", United States", GA 30097
"2625 S Memorial Dr, Tulsa, OK 74129, United States ","2625 S Memorial Dr, ",", Tulsa,",", United States", OK 74129
"2625 S Memorial Dr, Tulsa, OK 74129, United States ","2625 S Memorial Dr, ",", Tulsa,",", United States", OK 74129
"2625 S Memorial Dr, Tulsa, OK 74129, United States ","2625 S Memorial Dr, ",", Tulsa,",", United States", OK 74129
"600 W Chicago Ave #725, Chicago, IL 60654, United States ","600 W Chicago Ave #725, ",", Chicago,",", Chicago", IL 60654
"73 Leonard St, London EC2A 4QS, United Kingdom ","73 Leonard St, ",", London ",", United Kingdo", EC2A 4QS
"Old Church House/Sandy La, Crawley RH10 4HS, United Kingdom ","Old Church House/Sandy La, ",", Crawley ",", Crawley", RH10 4HS
"4405 E Cotton Center Blvd #130, Phoenix, AZ 85040, United States ","4405 E Cotton Center Blvd #130, ",", Phoenix,",", Phoenix", AZ 85040
"1400 Atwater Dr, Malvern, PA 19355, United States ","1400 Atwater Dr, ",", Malvern,",", Malvern", PA 19355
"1717 Doolittle Dr, San Leandro, CA 94577, United States ","1717 Doolittle Dr, ",", San Leand",", San Leandr", CA 94577
"9420 W Sam Houston Pkwy N, Houston, TX 77040, United States ","9420 W Sam Houston Pkwy N, ",", Houston,",", Houston", TX 77040
"Siemensstraße 9, 63263 Neu-Isenburg, Germany ","Siemensstraße 9, 63263 ",", Germany ",", Germany",
"30 S 15th St, Philadelphia, PA 19102, United States ","30 S 15th St, ",", Philadelphia,",", Philadelphia", S 15th
"10996 Torreyana Rd, San Diego, CA 92121, United States ","10996 Torreyana Rd, ",", San Diego",", United States", CA 92121
"1414 S Central Ave, Los Angeles, CA 90021, United States ","1414 S Central Ave, ",", Los Angel",", Los Angele", CA 90021
"3 Research Dr # 300, Greenville, SC 29607, United States ","3 Research Dr # 300, ",", Greenville,",", Greenville", SC 29607
"37 Rue de Bellechasse, 75007 Paris, France ","37 Rue de Bellechasse, 75007 ",", France ",,
"37 Rue de Bellechasse, 75007 Paris, France ","37 Rue de Bellechasse, 75007 ",", France ",,
"159, Tennyson House, 165 Great Portland St, London W1W 5PA, United Kingdom ","159, ",", Tennyson House",", Tennyson", W1W 5PA
"37 Rue de Bellechasse, 75007 Paris, France ","37 Rue de Bellechasse, 75007 ",", France ",,
"Stockley Park, 4 The Square, Hayes, Uxbridge UB11 1ET, United Kingdom ","Stockley Park, 4 ",", Hayes,",", Hayes, Uxbrid", UB11 1ET
"1 Archipelago, Camberley GU16 7ER, United Kingdom ","1 Archipelago, ",", Camberley ",", Camberley", GU16 7ER
"15-17 Praed St, London W2 1NJ, United Kingdom ","15-17 Praed St, ",", London ",", United Kingdo", W2 1NJ
"100 High St, Tonbridge TN9 1AN, United Kingdom ","100 High St, ",", Tonbridge ",", Tonbridge", TN9 1AN
"318 Court Rd, Orpington BR6 9DA, United Kingdom ","318 Court Rd, ",", Orpington ",", Orpington", BR6 9DA
"235 W Santa Clara St, Ventura, CA 93001, United States ","235 W Santa Clara St, ",", Ventura,",", Ventura", CA 93001
"235 W Santa Clara St, Ventura, CA 93001, United States ","235 W Santa Clara St, ",", Ventura,",", Ventura", CA 93001
"Mühlenstraße 25, 10243 Berlin, Germany ","Mühlenstraße 25, 10243 ",", Germany ",", Germany",
"Tamara-Danz-Straße 1, 10243 Berlin, Germany ","Tamara-Danz-Straße 1, 10243 ",", Germany ",", Germany",
"43-45 Market St, Halifax HX1 1PD, United Kingdom ","43-45 Market St, ",", Halifax ",", Halifax", HX1 1PD
"Tamara-Danz-Straße 1, 10243 Berlin, Germany ","Tamara-Danz-Straße 1, 10243 ",", Germany ",", Germany",
"Mühlenstraße 25, 10243 Berlin, Germany ","Mühlenstraße 25, 10243 ",", Germany ",", Germany",
"Mühlenstraße 25, 10243 Berlin, Germany ","Mühlenstraße 25, 10243 ",", Germany ",", Germany",
"Tamara-Danz-Straße 1, 10243 Berlin, Germany ","Tamara-Danz-Straße 1, 10243 ",", Germany ",", Germany",
"Mühlenstraße 25, 10243 Berlin, Germany ","Mühlenstraße 25, 10243 ",", Germany ",", Germany",
"Tamara-Danz-Straße 1, 10243 Berlin, Germany ","Tamara-Danz-Straße 1, 10243 ",", Germany ",", Germany",
"211 Old St, London EC1V 9NR, United Kingdom ","211 Old St, ",", London ",", United Kingdo", EC1V 9NR
"211 Old St, London EC1V 9NR, United Kingdom ","211 Old St, ",", London ",", United Kingdo", EC1V 9NR
"211 Old St, London EC1V 9NR, United Kingdom ","211 Old St, ",", London ",", United Kingdo", EC1V 9NR
"211 Old St, London EC1V 9NR, United Kingdom ","211 Old St, ",", London ",", United Kingdo", EC1V 9NR
"85 Brewer St, London W1F 9ZN, United Kingdom ","85 Brewer St, ",", London ",", United Kingdo", W1F 9ZN
"Boe.Tie Building, 1514 Broadway, New York, NY 10036, United States ","Boe.Tie Building, 1514 ",", New York,",", United States", NY 10036
"3301 Veterans Memorial Blvd Ste 86A, Metairie, LA 70002, United States ","3301 Veterans Memorial Blvd Ste 86A, ",", Metairie,",", Metairie", Ste 86A
"1 Shaw Cl, Wellingborough NN8 6BN, United Kingdom ","1 Shaw Cl, ",", Wellingborough ",", Wellingborough", NN8 6BN
"5935 Darwin Ct, Carlsbad, CA 92008, United States ","5935 Darwin Ct, ",", Carlsbad,",", Carlsbad", CA 92008
"75 Trafford Wharf Rd, Trafford Park, Stretford, Manchester M17 1ES, United Kingdom ","75 Trafford Wharf Rd, ",", Trafford Park,",", Trafford", M17 1ES
"54 Rue de Clichy, 75009 Paris, France ","54 Rue de Clichy, 75009 ",", France ",,
"52 Rue de Rivoli Le BHV Marais, 75004 Paris, France ","52 Rue de Rivoli Le BHV Marais, 75004 ",", France ",,
"32-33 Burlington Gardens, London W1J 0PZ, United Kingdom ","32-33 Burlington Gardens, ",", London ",", United Kingdo", W1J 0PZ
"1003 Madison Ave, New York, NY 10075, United States ","1003 Madison Ave, ",", New York,",", United States", NY 10075
"1003 Madison Ave, New York, NY 10075, United States ","1003 Madison Ave, ",", New York,",", United States", NY 10075
"13 Rue Saint-Antoine, 75004 Paris, France ","13 Rue Saint-Antoine, 75004 ",", France ",,
"24 Rue de Sèvres, 75007 Paris, France ","24 Rue de Sèvres, 75007 ",", France ",,
"379 University Ave, Palo Alto, CA 94301, United States ","379 University Ave, ",", Palo Alto,",", United States", CA 94301
"3 Central Blvd, Shirley, Solihull B90 8AJ, United Kingdom ","3 Central Blvd, ",", Shirley,",", Shirley, Solihu", B90 8AJ
"3 Central Blvd, Shirley, Solihull B90 8AJ, United Kingdom ","3 Central Blvd, ",", Shirley,",", Shirley, Solihu", B90 8AJ
"6868 Acco St, Montebello, CA 90640, United States ","6868 Acco St, ",", Montebello,",", Montebello", CA 90640
"96 Rue du Président Édouard Herriot, 69002 Lyon, France ","96 Rue du Président Édouard Herriot, 69002 ",", France ",,
"24 Rue du Faubourg Saint-Honoré, 75008 Paris, France ","24 Rue du Faubourg Saint-Honoré, 75008 ",", France ",,
"24 Rue du Faubourg Saint-Honoré, 75008 Paris, France ","24 Rue du Faubourg Saint-Honoré, 75008 ",", France ",,
"24 Rue du Faubourg Saint-Honoré, 75008 Paris, France ","24 Rue du Faubourg Saint-Honoré, 75008 ",", France ",,
"96 Rue du Président Édouard Herriot, 69002 Lyon, France ","96 Rue du Président Édouard Herriot, 69002 ",", France ",,
"155 New Bond St, London W1S 2UA, United Kingdom ","155 New Bond St, ",", London ",", United Kingdo", W1S 2UA
"24 Rue du Faubourg Saint-Honoré, 75008 Paris, France ","24 Rue du Faubourg Saint-Honoré, 75008 ",", France ",,
"933 MacArthur Blvd, Mahwah, NJ 07430, United States ","933 MacArthur Blvd, ",", Mahwah,",", United States", NJ 07430
"933 MacArthur Blvd, Mahwah, NJ 07430, United States ","933 MacArthur Blvd, ",", Mahwah,",", United States", NJ 07430
"200 Heritage Dr, Pataskala, OH 43062, United States ","200 Heritage Dr, ",", Pataskala,",", Pataskala", OH 43062
"200 Heritage Dr, Pataskala, OH 43062, United States ","200 Heritage Dr, ",", Pataskala,",", Pataskala", OH 43062
"25 Canada Square, London E14 5LQ, United Kingdom ","25 Canada Square, ",", London ",", United Kingdo", E14 5LQ
"9300 Jefferson Blvd, Culver City, CA 90232, United States ","9300 Jefferson Blvd, ",", Culver City,",", United States", CA 90232
"9300 Jefferson Blvd, Culver City, CA 90232, United States ","9300 Jefferson Blvd, ",", Culver City,",", United States", CA 90232
"Tränkestraße 18, 70597 Stuttgart, Germany ","Tränkestraße 18, 70597 ",", Germany ",", Germany",
"Tränkestraße 18, 70597 Stuttgart, Germany ","Tränkestraße 18, 70597 ",", Germany ",", Germany",
"Tränkestraße 18, 70597 Stuttgart, Germany ","Tränkestraße 18, 70597 ",", Germany ",", Germany",
"Tränkestraße 18, 70597 Stuttgart, Germany ","Tränkestraße 18, 70597 ",", Germany ",", Germany",
"Tränkestraße 18, 70597 Stuttgart, Germany ","Tränkestraße 18, 70597 ",", Germany ",", Germany",
"Lilienthalstraße 14, 82205 Gilching, Germany","Lilienthalstraße 14, 82205 ",", Germany",", Germany",
"Lilienthalstraße 14, 82205 Gilching, Germany","Lilienthalstraße 14, 82205 ",", Germany",", Germany",
"Lorcher Str. 151, 73529 Schwäbisch Gmünd, Germany ","Lorcher Str. 151, 73529 ",", Germany ",", Germany",
"Podbielskistraße 320, 30655 Hannover, Germany ","Podbielskistraße 320, 30655 ",", Germany ",", Germany",
"2nd floor, HM Vibha Towers, Luskur, Hosur Rd, Bengaluru, 560030 ","2nd floor, ",", HM Vibha",", Bengaluru",
"69 S Audley St, London W1K 2QZ, United Kingdom ","69 S Audley St, ",", London ",", United Kingdo", W1K 2QZ
"374 Rue St Honoré, 75001 Paris, France ","374 Rue St Honoré, 75001 ",", France ",,
"374 Rue St Honoré, 75001 Paris, France ","374 Rue St Honoré, 75001 ",", France ",,
"1 Kingdom St, London W2 6BD, United Kingdom ","1 Kingdom St, ",", London ",", United Kingdo", W2 6BD
"364 Maine Mall Rd Space W100, South Portland, ME 04106, United States ","364 Maine Mall Rd Space W100, ",", South Portl",", South Portla", ME 04106
"6011 Grand Ave, Des Moines, IA 50312, United States ","6011 Grand Ave, ",", Des Moine",", Des Moines", IA 50312
"1627 Walnut St, Philadelphia, PA 19103, United States ","1627 Walnut St, ",", Philadelphia,",", Philadelphia", PA 19103
"1933 Davis St, San Leandro, CA 94577, United States ","1933 Davis St, ",", San Leand",", San Leandr", CA 94577
"2 Western Rd, Bracknell RG12 1RT, United Kingdom ","2 Western Rd, ",", Bracknell ",", Bracknell", RG12 1RT
"Towfiq Hossain - Aah, 80 Strand, Towfiq Avenue, London WC2R 0RL, United Kingdom ","Towfiq Hossain - Aah, 80 ",", Towfiq Avenu",", Towfiq Avenue", WC2R 0RL
"105 Straight Rd, Old Windsor, Windsor SL4 2SE, United Kingdom","105 Straight Rd, ",", Old Winds",", Old Windso", SL4 2SE
"M1 Toddington South Service Area, Ipswich Road, Dunstable LU5 6HR, United Kingdom ","M1 Toddington South Service Area, ",", Ipswich Road,",", Ipswich", LU5 6HR
"458 Oxford St, London W1C 1AP, United Kingdom ","458 Oxford St, ",", London ",", United Kingdo", W1C 1AP
"173 Oxford St, London W1D 2JR, United Kingdom ","173 Oxford St, ",", London ",", United Kingdo", W1D 2JR
"458 Oxford St, London W1C 1AP, United Kingdom ","458 Oxford St, ",", London ",", United Kingdo", W1C 1AP
"458 Oxford St, London W1C 1AP, United Kingdom ","458 Oxford St, ",", London ",", United Kingdo", W1C 1AP
"12-28 Eastgate St, Gloucester GL1 1PA, United Kingdom ","12-28 Eastgate St, ",", Gloucester ",", Gloucester", GL1 1PA
"Shopping Precinct, 54 Church Street, Palace Gardens, Enfield EN2 6SN, United Kingdom ","Shopping Precinct, 54 ",", Palace Garde",", Palace Garden", EN2 6SN
"27 Fleet St, Birmingham B3 1JP, United Kingdom ","27 Fleet St, ",", Birmingham ",", Birmingham", B3 1JP
"27 Fleet St, Birmingham B3 1JP, United Kingdom ","27 Fleet St, ",", Birmingham ",", Birmingham", B3 1JP
"27 Fleet St, Birmingham B3 1JP, United Kingdom ","27 Fleet St, ",", Birmingham ",", Birmingham", B3 1JP
"27 Fleet St, Birmingham B3 1JP, United Kingdom ","27 Fleet St, ",", Birmingham ",", Birmingham", B3 1JP
"27 Fleet St, Birmingham B3 1JP, United Kingdom ","27 Fleet St, ",", Birmingham ",", Birmingham", B3 1JP
"Unit 2a, Southwater Way, Telford TF3 4JG, United Kingdom ","Unit 2a, ",", Southwater ",", Southwater", TF3 4JG
"27 Fleet St, Birmingham B3 1JP, United Kingdom ","27 Fleet St, ",", Birmingham ",", Birmingham", B3 1JP
"27 Fleet St, Birmingham B3 1JP, United Kingdom ","27 Fleet St, ",", Birmingham ",", Birmingham", B3 1JP
"Central Office - Hermiston Quay, 5 Cultins Rd, Edinburgh EH11 4DF, United Kingdom ","Central Office - Hermiston Quay, 5 ",", Edinburgh ",", Edinburgh", EH11 4DF
"Crathes, Banchory AB31 5QJ, United Kingdom ","Crathes, ",", Banchory ",", Banchory", AB31 5QJ
"85-87 Stafford St, Hanley, Stoke-on-Trent ST1 1LS, United Kingdom ","85-87 Stafford St, ",", Hanley,",", United Kingdo", ST1 1LS
"St Chads Court, 213 Hagley Rd, Birmingham B16 9RG, United Kingdom","St Chads Court, 213 ",", Birmingham ",", Birmingham", B16 9RG
"116 Chaplin Rd, Wembley HA0 4UZ, United Kingdom","116 Chaplin Rd, ",", Wembley ",", Wembley", HA0 4UZ
"116 Chaplin Rd, Wembley HA0 4UZ, United Kingdom","116 Chaplin Rd, ",", Wembley ",", Wembley", HA0 4UZ
"99 Gresham St, London EC2V 7NG, United Kingdom","99 Gresham St, ",", London ",", United Kingdo", EC2V 7NG
"99 Gresham St, London EC2V 7NG, United Kingdom ","99 Gresham St, ",", London ",", United Kingdo", EC2V 7NG
"Desford Rd, Enderby, Leicester LE19 4AT, United Kingdom ","Desford Rd, ",", Enderby,",", Enderby, Leices", LE19 4AT
"265 Olinger Cir, Wilmington, OH 45177, United States ","265 Olinger Cir, ",", Wilmington,",", Wilmington", OH 45177
"501 Beaumont Leys Ln, Leicester LE4 2BN, United Kingdom","501 Beaumont Leys Ln, ",", Leicester ",", Leicester", LE4 2BN
"Temple Quay, 1 Rivergate, Redcliffe, Bristol BS1 6ED, United Kingdom ","Temple Quay, 1 ",", Redcliffe,",", Redcliffe, Bristo", BS1 6ED
"50 Shakespeare St, Nottingham NG1 4FQ, United Kingdom ","50 Shakespeare St, ",", Nottingham ",", Nottingham", NG1 4FQ
"Portland Building, University Park, Nottingham NG7 2RD, United Kingdom ","Portland Building, ",", University Park,",", University", NG7 2RD
"50 Shakespeare St, Nottingham NG1 4FQ, United Kingdom ","50 Shakespeare St, ",", Nottingham ",", Nottingham", NG1 4FQ
"50 Shakespeare St, Nottingham NG1 4FQ, United Kingdom ","50 Shakespeare St, ",", Nottingham ",", Nottingham", NG1 4FQ
"Portland Building, University Park, Nottingham NG7 2RD, United Kingdom ","Portland Building, ",", University Park,",", University", NG7 2RD
"13 Darlington St, Wigan WN1 1DL, United Kingdom ","13 Darlington St, ",", Wigan ",", United Kingdo", WN1 1DL
"32 Vauxhall Bridge Rd, London SW1V 2SS, United Kingdom ","32 Vauxhall Bridge Rd, ",", London ",", United Kingdo", SW1V 2SS
"32 Vauxhall Bridge Rd, London SW1V 2SS, United Kingdom ","32 Vauxhall Bridge Rd, ",", London ",", United Kingdo", SW1V 2SS
"11 Northfield Dr, Milton Keynes MK15 0DQ, United Kingdom ","11 Northfield Dr, ",", Milton Keyne",", Milton Keynes", MK15 0DQ
"11 Northfield Dr, Milton Keynes MK15 0DQ, United Kingdom ","11 Northfield Dr, ",", Milton Keyne",", Milton Keynes", MK15 0DQ
"32 Vauxhall Bridge Rd, London SW1V 2SS, United Kingdom ","32 Vauxhall Bridge Rd, ",", London ",", United Kingdo", SW1V 2SS
"20 Whitcomb St., London WC2H 7HA, United Kingdom ","20 Whitcomb St., ",", London ",", United Kingdo", WC2H 7HA
"32 Vauxhall Bridge Rd, London SW1V 2SS, United Kingdom ","32 Vauxhall Bridge Rd, ",", London ",", United Kingdo", SW1V 2SS
"Finsgate, 5-7 Cranwood St, London EC1V 9LH, United Kingdom","Finsgate, 5",", London ",", United Kingdo", EC1V 9LH
"167 Vauxhall Bridge Rd, Pimlico, London SW1V 2ST, United Kingdom ","167 Vauxhall Bridge Rd, ",", Pimlico,",", Pimlico, London", SW1V 2ST
"Finsgate, 5-7 Cranwood St, London EC1V 9LH, United Kingdom","Finsgate, 5",", London ",", United Kingdo", EC1V 9LH
"167 Vauxhall Bridge Rd, Pimlico, London SW1V 2ST, United Kingdom ","167 Vauxhall Bridge Rd, ",", Pimlico,",", Pimlico, London", SW1V 2ST
"167 Vauxhall Bridge Rd, Pimlico, London SW1V 2ST, United Kingdom ","167 Vauxhall Bridge Rd, ",", Pimlico,",", Pimlico, London", SW1V 2ST
"75a South St, Bishop's Stortford CM23 3AL, United Kingdom ","75a South St, ",", Bishop'",", United Kingdo", CM23 3AL
"32-36 Bridge St, Peterborough PE1 1DH, United Kingdom ","32-36 Bridge St, ",", Peterborough ",", Peterborough", PE1 1DH
"167 Vauxhall Bridge Rd, Pimlico, London SW1V 2ST, United Kingdom ","167 Vauxhall Bridge Rd, ",", Pimlico,",", Pimlico, London", SW1V 2ST
"57 Hotaling Pl, San Francisco, CA 94111, United States ","57 Hotaling Pl, ",", San Franc",", San Franci", CA 94111
"167 Vauxhall Bridge Rd, Pimlico, London SW1V 2ST, United Kingdom ","167 Vauxhall Bridge Rd, ",", Pimlico,",", Pimlico, London", SW1V 2ST
"150 Armley Rd, Armley, Leeds LS12 2QQ, United Kingdom ","150 Armley Rd, ",", Armley,",", United Kingdo", LS12 2QQ
"Adastral park, B55, Ipswich IP5 3RE, United Kingdom ","Adastral park, ",", Ipswich ",", Ipswich", IP5 3RE
"150 Armley Rd, Armley, Leeds LS12 2QQ, United Kingdom ","150 Armley Rd, ",", Armley,",", United Kingdo", LS12 2QQ
"2 Capital Quarter, Tyndall St, Cardiff CF10 4BZ, United Kingdom ","2 Capital Quarter, ",", Tyndall ",", Tyndall", CF10 4BZ
"Fleet Place House, 2 Fleet Pl, London EC4M 7RF, United Kingdom","Fleet Place House, 2 ",", London ",", United Kingdo", EC4M 7RF
"150 Armley Rd, Armley, Leeds LS12 2QQ, United Kingdom ","150 Armley Rd, ",", Armley,",", United Kingdo", LS12 2QQ
"150 Armley Rd, Armley, Leeds LS12 2QQ, United Kingdom ","150 Armley Rd, ",", Armley,",", United Kingdo", LS12 2QQ
"Public Health Wales Microbiology Pathology Block Singleton Hospital, Sketty Ln, Sketty, Swansea SA2 8QA, United Kingdom ","Public Health Wales Microbiology Pathology Block Singleton Hospital, ",", Sketty ",", Sketty, Swanse", SA2 8QA
"2nd Floor, 200 Aldersgate St, Barbican, London EC1A 4HD, United Kingdom ","2nd Floor, 200 ",", Barbican,",", Barbican, London", EC1A 4HD
"2nd Floor, 200 Aldersgate St, Barbican, London EC1A 4HD, United Kingdom ","2nd Floor, 200 ",", Barbican,",", Barbican, London", EC1A 4HD
"2nd Floor, 200 Aldersgate St, Barbican, London EC1A 4HD, United Kingdom","2nd Floor, 200 ",", Barbican,",", Barbican, London", EC1A 4HD
"Bradbourne Dr, Tilbrook, Milton Keynes MK7 8BJ, United Kingdom ","Bradbourne Dr, ",", Tilbrook,",", Tilbrook, Milton", MK7 8BJ
"42 Earlham St, London WC2H 9LA, United Kingdom ","42 Earlham St, ",", London ",", United Kingdo", WC2H 9LA
"Bradbourne Dr, Tilbrook, Milton Keynes MK7 8BJ, United Kingdom ","Bradbourne Dr, ",", Tilbrook,",", Tilbrook, Milton", MK7 8BJ
"Bradbourne Dr, Tilbrook, Milton Keynes MK7 8BJ, United Kingdom ","Bradbourne Dr, ",", Tilbrook,",", Tilbrook, Milton", MK7 8BJ
"Bradbourne Dr, Tilbrook, Milton Keynes MK7 8BJ, United Kingdom ","Bradbourne Dr, ",", Tilbrook,",", Tilbrook, Milton", MK7 8BJ
"The Rivers Office Park, Denham Way, Maple Cross, Rickmansworth WD3 9YS, United Kingdom ","The Rivers Office Park, ",", Denham ",", Rickmansworth", WD3 9YS
"The Rivers Office Park, Denham Way, Maple Cross, Rickmansworth WD3 9YS, United Kingdom ","The Rivers Office Park, ",", Denham ",", Rickmansworth", WD3 9YS
"Brandenburger Ring 2 -4, 32339 Espelkamp, Germany ","Brandenburger Ring 2 -4, 32339 ",", Germany ",", Germany", Ring 2 
"1451 E Lincoln Ave, Madison Heights, MI 48071, United States ","1451 E Lincoln Ave, ",", Madison Heigh",", Madison Height", MI 48071
"1101 E 8th St, Eldon, MO 65026, United States ","1101 E 8th St, ",", Eldon,",", United States", E 8th
"117 8th St, Brooklyn, NY 11215, United States ","117 8th St, ",", Brooklyn,",", Brooklyn", NY 11215
"106 Bath Rd, Reading RG30 2EU, United Kingdom","106 Bath Rd, ",", Reading ",", Reading", RG30 2EU
"The Rivers Office Park, Denham Way, Maple Cross, Rickmansworth WD3 9YS, United Kingdom ","The Rivers Office Park, ",", Denham ",", Rickmansworth", WD3 9YS
"The Rivers Office Park, Denham Way, Maple Cross, Rickmansworth WD3 9YS, United Kingdom ","The Rivers Office Park, ",", Denham ",", Rickmansworth", WD3 9YS
"Fleet Place House, 2 Fleet Pl, London EC4M 7RF, United Kingdom","Fleet Place House, 2 ",", London ",", United Kingdo", EC4M 7RF
"Enbrook Park, Sandgate CT20 3SE, United Kingdom","Enbrook Park, ",", Sandgate ",", Sandgate", CT20 3SE
"Enbrook Park, Sandgate CT20 3SE, United Kingdom","Enbrook Park, ",", Sandgate ",", Sandgate", CT20 3SE
"Enbrook Park, Sandgate CT20 3SE, United Kingdom","Enbrook Park, ",", Sandgate ",", Sandgate", CT20 3SE
"Enbrook Park, Sandgate CT20 3SE, United Kingdom ","Enbrook Park, ",", Sandgate ",", Sandgate", CT20 3SE
"Enbrook Park, Sandgate CT20 3SE, United Kingdom","Enbrook Park, ",", Sandgate ",", Sandgate", CT20 3SE
"401 Southway Dr, Plymouth PL6 6QT, United Kingdom ","401 Southway Dr, ",", Plymouth ",", Plymouth", PL6 6QT
"2nd Floor, 80 Victoria St, London SW1E 5JL, United Kingdom ","2nd Floor, 80 ",", London ",", United Kingdo", SW1E 5JL
"9 Opal Way, Stone ST15 0SS, United Kingdom ","9 Opal Way, ",", Stone ",", United Kingdo", ST15 0SS
"12 Rue Cambon, 75001 Paris, France ","12 Rue Cambon, 75001 ",", France ",,
"12 Rue Cambon, 75001 Paris, France ","12 Rue Cambon, 75001 ",", France ",,
"2711 Centerville Rd, Wilmington, DE 19808, United States ","2711 Centerville Rd, ",", Wilmington,",", Wilmington", DE 19808
"The Magna Building, Wyndyke Furlong, Abingdon OX14 1DZ, United Kingdom ","The Magna Building, ",", Wyndyke Furlo",", Wyndyke Furlon", OX14 1DZ
"27 Great West Rd, Brentford TW8 9BW, United Kingdom ","27 Great West Rd, ",", Brentford ",", Brentford", TW8 9BW
"27 Great West Rd, Brentford TW8 9BW, United Kingdom ","27 Great West Rd, ",", Brentford ",", Brentford", TW8 9BW
"38-44 Gillingham St, Pimlico, London SW1V 1HU, United Kingdom ","38-44 Gillingham St, ",", Pimlico,",", Pimlico, London", SW1V 1HU
"3150 Century Way, Leeds LS15 8ZB, United Kingdom ","3150 Century Way, ",", Leeds ",", United Kingdo", LS15 8ZB
"38-44 Gillingham St, Pimlico, London SW1V 1HU, United Kingdom ","38-44 Gillingham St, ",", Pimlico,",", Pimlico, London", SW1V 1HU
"St Lukes Hospice, Stamford Ln, Turnchapel, Plymouth PL9 9XA, United Kingdom ","St Lukes Hospice, ",", Stamford ",", Stamford", PL9 9XA
"Commerce Way, 17, Stretford, Manchester M17 1HW, United Kingdom","Commerce Way, 17",", Stretford,",", Stretford, Manche", M17 1HW
"1 Royal Exchange, London EC3V 3DG, United Kingdom ","1 Royal Exchange, ",", London ",", United Kingdo", EC3V 3DG
"100 New Oxford St, London WC1A 1HB, United Kingdom ","100 New Oxford St, ",", London ",", United Kingdo", WC1A 1HB
"College Rd, Stoke-on-Trent ST4 2DE, United Kingdom ","College Rd, ",", Stoke-",", United Kingdo", ST4 2DE
"Ridings Point, Whistler Dr, Castleford WF10 5HX, United Kingdom","Ridings Point, ",", Whistler ",", Whistler", WF10 5HX
"Factory Rd, London E16 2EW, United Kingdom","Factory Rd, ",", London ",", United Kingdo", E16 2EW
"400 N Elm St, Greensboro, NC 27401, United States ","400 N Elm St, ",", Greensboro,",", Greensboro", NC 27401
"245 E 124th St, New York, NY 10035, United States ","245 E 124th St, ",", New York,",", United States", E 124th
"245 E 124th St, New York, NY 10035, United States ","245 E 124th St, ",", New York,",", United States", E 124th
"Ridings Point, Whistler Dr, Castleford WF10 5HX, United Kingdom","Ridings Point, ",", Whistler ",", Whistler", WF10 5HX
"47 Kenyon St, Birmingham B3 1UR, United Kingdom ","47 Kenyon St, ",", Birmingham ",", Birmingham", B3 1UR
"500 S Buena Vista St, Burbank, CA 91521, United States ","500 S Buena Vista St, ",", Burbank,",", Burbank", CA 91521
"500 S Buena Vista St, Burbank, CA 91521, United States ","500 S Buena Vista St, ",", Burbank,",", Burbank", CA 91521
"500 S Buena Vista St, Burbank, CA 91521, United States ","500 S Buena Vista St, ",", Burbank,",", Burbank", CA 91521
"500 S Buena Vista St, Burbank, CA 91521, United States ","500 S Buena Vista St, ",", Burbank,",", Burbank", CA 91521
"500 S Buena Vista St, Burbank, CA 91521, United States ","500 S Buena Vista St, ",", Burbank,",", Burbank", CA 91521
"500 S Buena Vista St, Burbank, CA 91521, United States ","500 S Buena Vista St, ",", Burbank,",", Burbank", CA 91521
"500 S Buena Vista St, Burbank, CA 91521, United States ","500 S Buena Vista St, ",", Burbank,",", Burbank", CA 91521
"114 5th Ave #13, New York, NY 10011, United States ","114 5th Ave #13, ",", New York,",", United States", NY 10011
"500 S Buena Vista St, Burbank, CA 91521, United States ","500 S Buena Vista St, ",", Burbank,",", Burbank", CA 91521
"1200 Grand Central Ave, Glendale, CA 91201, United States ","1200 Grand Central Ave, ",", Glendale,",", Glendale", CA 91201
"Lilli-Palmer-Straße 2, 80636 München, Germany ","Lilli-Palmer-Straße 2, 80636 ",", Germany ",", Germany",
"445 S Magnolia Ave, Orlando, FL 32801, United States ","445 S Magnolia Ave, ",", Orlando,",", Orlando", FL 32801
"500 S Buena Vista St, Burbank, CA 91521, United States ","500 S Buena Vista St, ",", Burbank,",", Burbank", CA 91521
"500 S Buena Vista St, Burbank, CA 91521, United States ","500 S Buena Vista St, ",", Burbank,",", Burbank", CA 91521
"500 S Buena Vista St, Burbank, CA 91521, United States ","500 S Buena Vista St, ",", Burbank,",", Burbank", CA 91521
"500 S Buena Vista St, Burbank, CA 91521, United States ","500 S Buena Vista St, ",", Burbank,",", Burbank", CA 91521
"500 S Buena Vista St, Burbank, CA 91521, United States ","500 S Buena Vista St, ",", Burbank,",", Burbank", CA 91521
"500 S Buena Vista St, Burbank, CA 91521, United States ","500 S Buena Vista St, ",", Burbank,",", Burbank", CA 91521
"Walton House, 55 Charnock Rd, Liverpool L67 1AA, United Kingdom","Walton House, 55 ",", Liverpool ",", Liverpool", L67 1AA
"East Grinstead House, Wood St, East Grinstead RH19 1UA, United Kingdom ","East Grinstead House, ",", East Grins",", East Grinst", RH19 1UA
"22 Northfield Way, Newton Aycliffe DL5 6EJ, United Kingdom ","22 Northfield Way, ",", Newton Aycli",", Newton Ayclif", DL5 6EJ
"100 Tice Blvd, Woodcliff Lake, NJ 07677, United States ","100 Tice Blvd, ",", Woodcliff Lake,",", Woodcliff", NJ 07677
"2nd Floor, Cross Keys House, 22 Queen St, Salisbury SP1 1EY, United Kingdom ","2nd Floor, ",", Cross Keys ",", Salisbury", SP1 1EY
"2, City Place, Crawley, Gatwick RH6 0PA, United Kingdom ","2, ",", City Place",", Crawley, Gatwic", RH6 0PA
"316 Rte de Bayonne, 31300 Toulouse, France ","316 Rte de Bayonne, 31300 ",", France ",,
"East Grinstead House, Wood St, East Grinstead RH19 1UA, United Kingdom ","East Grinstead House, ",", East Grins",", East Grinst", RH19 1UA
"Cranmer Terrace, London SW17 0RE, United Kingdom ","Cranmer Terrace, ",", London ",", United Kingdo", SW17 0RE
"Stokenchurch House, Oxford Rd, Stokenchurch, High Wycombe HP14 3SX, United Kingdom ","Stokenchurch House, ",", Oxford ",", Stokenchurch", HP14 3SX
"Royal Horticultural Society Garden Wisley, 80 Vincent Square, Woking GU23 6QB, United Kingdom ","Royal Horticultural Society Garden Wisley, 80 ",", Woking ",", United Kingdo", GU23 6QB
"Waterside, Stratford-upon-Avon CV37 6BB, United Kingdom ","Waterside, ",", Stratford-",", Stratford", CV37 6BB
"Station View, Harrogate HG2 7JA, United Kingdom ","Station View, ",", Harrogate ",", Harrogate", HG2 7JA
"5th Floor, 55 New Oxford St, London WC1A 1BS, United Kingdom ","5th Floor, 55 ",", London ",", United Kingdo", WC1A 1BS
"159-14 Cross Bay Blvd, Howard Beach, NY 11414, United States ","159-14 Cross Bay Blvd, ",", Howard Beach",", United States", NY 11414
"439 Wimborne Rd, Bournemouth BH9 2AN, United Kingdom ","439 Wimborne Rd, ",", Bournemouth ",", Bournemouth", BH9 2AN
"South Quay House, Temple Back, Bristol BS1 6FL, United Kingdom ","South Quay House, ",", Temple Back,",", Bristol", BS1 6FL
"500 Avebury Blvd, Milton Keynes MK9 2BE, United Kingdom ","500 Avebury Blvd, ",", Milton Keyne",", Milton Keynes", MK9 2BE
"2 Piccadilly Place, Manchester M1 3BG, United Kingdom ","2 Piccadilly Place, ",", Manchester ",", Manchester", M1 3BG
"3rd floor, Ranger House, Walnut Tree Cl, Guildford GU1 4UL, United Kingdom ","3rd floor, ",", Ranger House",", Guildford", GU1 4UL
"2 Piccadilly Place, Manchester M1 3BG, United Kingdom","2 Piccadilly Place, ",", Manchester ",", Manchester", M1 3BG
"Royalty Studios, 105-109 Lancaster Rd, London W11 1QF, United Kingdom ","Royalty Studios, 105",", London ",", United Kingdo", W11 1QF
"3rd floor, Ranger House, Walnut Tree Cl, Guildford GU1 4UL, United Kingdom","3rd floor, ",", Ranger House",", Guildford", GU1 4UL
"5 Broadgate, London EC2M 2QS, United Kingdom ","5 Broadgate, ",", London ",", United Kingdo", EC2M 2QS
"5 Broadgate, London EC2M 2QS, United Kingdom","5 Broadgate, ",", London ",", United Kingdo", EC2M 2QS
"Gower St, London WC1E 6BT, United Kingdom ","Gower St, ",", London ",", United Kingdo", WC1E 6BT
"5 Broadgate, London EC2M 2QS, United Kingdom","5 Broadgate, ",", London ",", United Kingdo", EC2M 2QS
"5 Broadgate, London EC2M 2QS, United Kingdom","5 Broadgate, ",", London ",", United Kingdo", EC2M 2QS
"5 Broadgate, London EC2M 2QS, United Kingdom","5 Broadgate, ",", London ",", United Kingdo", EC2M 2QS
"Old Royal Naval College, Park Row, London SE10 9LS, United Kingdom","Old Royal Naval College, ",", London ",", United Kingdo", SE10 9LS
"5 Broadgate, London EC2M 2QS, United Kingdom ","5 Broadgate, ",", London ",", United Kingdo", EC2M 2QS
"8410 West Bryn Mawr Avenue, 8410 Floors: 1-11, Chicago, IL 60631, United States ","8410 West Bryn Mawr Avenue, 8410 ",", Chicago,",", Chicago", IL 60631
"Old Royal Naval College, Park Row, London SE10 9LS, United Kingdom","Old Royal Naval College, ",", London ",", United Kingdo", SE10 9LS
"5 Broadgate, London EC2M 2QS, United Kingdom ","5 Broadgate, ",", London ",", United Kingdo", EC2M 2QS
"5 Broadgate, London EC2M 2QS, United Kingdom","5 Broadgate, ",", London ",", United Kingdo", EC2M 2QS
"5 Broadgate, London EC2M 2QS, United Kingdom ","5 Broadgate, ",", London ",", United Kingdo", EC2M 2QS
"Mile End Rd, Bethnal Green, London E1 4NS, United Kingdom ","Mile End Rd, ",", Bethnal Green",", Bethnal", E1 4NS
"5 Broadgate, London EC2M 2QS, United Kingdom","5 Broadgate, ",", London ",", United Kingdo", EC2M 2QS
"5 Broadgate, London EC2M 2QS, United Kingdom","5 Broadgate, ",", London ",", United Kingdo", EC2M 2QS
"5 Broadgate, London EC2M 2QS, United Kingdom ","5 Broadgate, ",", London ",", United Kingdo", EC2M 2QS
"Mile End Rd, Bethnal Green, London E1 4NS, United Kingdom","Mile End Rd, ",", Bethnal Green",", Bethnal", E1 4NS
"7776 East Coast Hwy, Newport Coast, CA 92657, United States ","7776 East Coast Hwy, ",", Newport Coast",", Newport", CA 92657
"7900 Harkins Rd, Lanham, MD 20706, United States ","7900 Harkins Rd, ",", Lanham,",", United States", MD 20706
"20 Upper St Martin's Ln, London WC2H 9JZ, United Kingdom ","20 Upper St Martin's Ln, ",", London ",", United Kingdo", WC2H 9JZ
"Falmer, Brighton BN1 9RH, United Kingdom","Falmer, ",", Brighton ",", Brighton", BN1 9RH
"262 Harbor Dr, Stamford, CT 06902, United States ","262 Harbor Dr, ",", Stamford,",", Stamford", CT 06902
"Beech Gate, Millfield Ln, Lower Kingswood, Tadworth KT20 6RP, United Kingdom ","Beech Gate, ",", Millfield ",", Millfield", KT20 6RP
"Falmer, Brighton BN1 9RH, United Kingdom ","Falmer, ",", Brighton ",", Brighton", BN1 9RH
"Warner Drive, Leavesden, Watford WD25 7LP, United Kingdom ","Warner Drive, ",", Leavesden,",", Leavesden, Watfor", WD25 7LP
"Yeomans Dr, Blakelands, Milton Keynes MK14 5AN, United Kingdom","Yeomans Dr, ",", Blakelands,",", Blakelands, Milton", MK14 5AN
"7 Lochside View, Edinburgh EH12 9DH, United Kingdom ","7 Lochside View, ",", Edinburgh ",", Edinburgh", EH12 9DH
"5 Howick Pl, London SW1P 1WG, United Kingdom ","5 Howick Pl, ",", London ",", United Kingdo", SW1P 1WG
"Yeomans Dr, Blakelands, Milton Keynes MK14 5AN, United Kingdom ","Yeomans Dr, ",", Blakelands,",", Blakelands, Milton", MK14 5AN
"Yeomans Dr, Blakelands, Milton Keynes MK14 5AN, United Kingdom","Yeomans Dr, ",", Blakelands,",", Blakelands, Milton", MK14 5AN
"The Darwin Building, 310 Milton Rd, Milton, Cambridge CB4 0WG, United Kingdom ","The Darwin Building, 310 ",", Milton,",", Milton, Cambri", CB4 0WG
"200 Arsenal Yards Blvd, Watertown, MA 02472, United States ","200 Arsenal Yards Blvd, ",", Watertown,",", Watertown", MA 02472
"Station Rd, Burton Latimer, Kettering NN15 5JR, United Kingdom","Station Rd, ",", Burton Latim",", Burton Latime", NN15 5JR
"Station Rd, Burton Latimer, Kettering NN15 5JR, United Kingdom","Station Rd, ",", Burton Latim",", Burton Latime", NN15 5JR
"Station Rd, Burton Latimer, Kettering NN15 5JR, United Kingdom ","Station Rd, ",", Burton Latim",", Burton Latime", NN15 5JR
"3333 Riverwood Pkwy Suite 350, Atlanta, GA 30339, United States","3333 Riverwood Pkwy Suite 350, ",", Atlanta,",", Atlanta", Suite 350
"2501 Hudson Rd, Maplewood, MN 55144, United States ","2501 Hudson Rd, ",", Maplewood,",", Maplewood", MN 55144
"2501 Hudson Rd, Maplewood, MN 55144, United States ","2501 Hudson Rd, ",", Maplewood,",", Maplewood", MN 55144
"2501 Hudson Rd, Maplewood, MN 55144, United States ","2501 Hudson Rd, ",", Maplewood,",", Maplewood", MN 55144
"2501 Hudson Rd, Maplewood, MN 55144, United States ","2501 Hudson Rd, ",", Maplewood,",", Maplewood", MN 55144
"2501 Hudson Rd, Maplewood, MN 55144, United States ","2501 Hudson Rd, ",", Maplewood,",", Maplewood", MN 55144
"Station Rd, Burton Latimer, Kettering NN15 5JR, United Kingdom ","Station Rd, ",", Burton Latim",", Burton Latime", NN15 5JR
"Station Rd, Burton Latimer, Kettering NN15 5JR, United Kingdom ","Station Rd, ",", Burton Latim",", Burton Latime", NN15 5JR
"9449 De Soto Ave, Chatsworth, CA 91311, United States ","9449 De Soto Ave, ",", Chatsworth,",", Chatsworth", CA 91311
"Fleet Place House, 2 Fleet Pl, London EC4M 7RF, United Kingdom","Fleet Place House, 2 ",", London ",", United Kingdo", EC4M 7RF
"Fleet Place House, 2 Fleet Pl, London EC4M 7RF, United Kingdom","Fleet Place House, 2 ",", London ",", United Kingdo", EC4M 7RF
"Fleet Place House, 2 Fleet Pl, London EC4M 7RF, United Kingdom ","Fleet Place House, 2 ",", London ",", United Kingdo", EC4M 7RF
"4 Exchange Quay, The Quays, Salford M5 3EE, United Kingdom ","4 Exchange Quay, ",", The Quays",", Salford", M5 3EE
"Heanor Road, Ilkeston DE7 8DR, United Kingdom ","Heanor Road, ",", Ilkeston ",", Ilkeston", DE7 8DR
"St Helen's 1, Undershaft, London EC3P 3DQ, United Kingdom ","St Helen's 1, ",", Undershaft,",", Undershaft, London", EC3P 3DQ
"175-177 New Bond St, London W1S 4RN, United Kingdom ","175-177 New Bond St, ",", London ",", United Kingdo", W1S 4RN
"500 7th Ave, New York, NY 10018, United States ","500 7th Ave, ",", New York,",", United States", NY 10018
"62 Buckingham Gate, London SW1E 6AJ, United Kingdom ","62 Buckingham Gate, ",", London ",", United Kingdo", SW1E 6AJ
"30 Eastbourne Terrace, London W2 6LA, United Kingdom","30 Eastbourne Terrace, ",", London ",", United Kingdo", W2 6LA
"30 Eastbourne Terrace, London W2 6LA, United Kingdom","30 Eastbourne Terrace, ",", London ",", United Kingdo", W2 6LA
"30 Eastbourne Terrace, London W2 6LA, United Kingdom","30 Eastbourne Terrace, ",", London ",", United Kingdo", W2 6LA
"25, Gemini Business Park Hornet Way, London E6 7FF, United Kingdom","25, ",", Gemini Busin",", Gemini Busine", E6 7FF
"233 Park Ave S, New York, NY 10003, United States","233 Park Ave S, ",", New York,",", United States", NY 10003
"30 Eastbourne Terrace, London W2 6LA, United Kingdom","30 Eastbourne Terrace, ",", London ",", United Kingdo", W2 6LA
"AG-56, Ist Floor, 3rd Street, Anna Nagar, Chennai, Tamil Nadu 600040 ","AG-56, ",", Ist Floor",", Chennai", Nadu 600040
"Hatfield Business Park, Hatfield Avenue, Hatfield AL10 9TW, United Kingdom ","Hatfield Business Park, ",", Hatfield Avenu",", Hatfield Avenue", AL10 9TW
"55 Post Rd W, Westport, CT 06880, United States ","55 Post Rd W, ",", Westport,",", Westport", CT 06880
"1 Bravingtons Walk, London N1 9AE, United Kingdom ","1 Bravingtons Walk, ",", London ",", United Kingdo", N1 9AE
"Holgate Park Dr, Holgate, York YO26 4GA, United Kingdom ","Holgate Park Dr, ",", Holgate,",", Holgate", YO26 4GA
"6555 Carnegie Ave, Cleveland, OH 44103, United States ","6555 Carnegie Ave, ",", Cleveland,",", Cleveland", OH 44103
"1400 Sheridan Rd, North Chicago, IL 60064, United States ","1400 Sheridan Rd, ",", North Chica",", North Chicag", IL 60064
"200 Sidney St, Cambridge, MA 02139, United States ","200 Sidney St, ",", Cambridge,",", Cambridge", MA 02139
"Fleet Place House, 2 Fleet Pl, London EC4M 7RF, United Kingdom","Fleet Place House, 2 ",", London ",", United Kingdo", EC4M 7RF
"70 Church St, Tamworth B79 7DQ, United Kingdom ","70 Church St, ",", Tamworth ",", Tamworth", B79 7DQ
"Fleet Place House, 2 Fleet Pl, London EC4M 7RF, United Kingdom","Fleet Place House, 2 ",", London ",", United Kingdo", EC4M 7RF
"1400 Sheridan Rd, North Chicago, IL 60064, United States ","1400 Sheridan Rd, ",", North Chica",", North Chicag", IL 60064
"Mainzer Str. 81, 65189 Wiesbaden, Germany ","Mainzer Str. 81, 65189 ",", Germany ",", Germany",
"15811 Jewel Ave, Fresh Meadows, NY 11365, United States ","15811 Jewel Ave, ",", Fresh Meado",", Fresh Meadow", NY 11365
"40 Shattuck Rd, Andover, MA 01810, United States ","40 Shattuck Rd, ",", Andover,",", Andover", MA 01810
"415 Moyer Blvd, North Wales, PA 19454, United States","415 Moyer Blvd, ",", North Wales",", United States", PA 19454
"2445 Port Neal Rd, Sergeant Bluff, IA 51054, United States","2445 Port Neal Rd, ",", Sergeant Bluff",", Sergeant", IA 51054
"76-78 Clerkenwell Rd, London EC1M 5QA, United Kingdom ","76-78 Clerkenwell Rd, ",", London ",", United Kingdo", EC1M 5QA
"1 Waukegan Rd, Lake Bluff, IL 60044, United States ","1 Waukegan Rd, ",", Lake Bluff",", United States", IL 60044
"ZI du Clos Pré, Zoning Industriel, 27460 Alizay, France ","ZI du Clos Pré, ",", Zoning Indus",", Zoning Indust",
"8100 S County Rd K, Merrill, WI 54452, United States ","8100 S County Rd K, ",", Merrill,",", Merrill", WI 54452
"2376 South Park Ave, Buffalo, NY 14220, United States ","2376 South Park Ave, ",", Buffalo,",", Buffalo", NY 14220
"4912 E Franklin Rd, Nampa, ID 83687, United States ","4912 E Franklin Rd, ",", Nampa,",", United States", ID 83687
"2376 South Park Ave, Buffalo, NY 14220, United States ","2376 South Park Ave, ",", Buffalo,",", Buffalo", NY 14220
"Giselherstraße 11, 44319 Dortmund, Germany ","Giselherstraße 11, 44319 ",", Germany ",", Germany",
"42-46 Rue Médéric, 92110 Clichy, France ","42-46 Rue Médéric, 92110 ",", France ",,
"6110 Abbott Dr, Omaha, NE 68110, United States ","6110 Abbott Dr, ",", Omaha,",", United States", NE 68110
"2020 E Center St, Greenwood, AR 72936, United States ","2020 E Center St, ",", Greenwood,",", Greenwood", AR 72936
"Oxford Rd, Manchester M13 9PL, United Kingdom ","Oxford Rd, ",", Manchester ",", Manchester", M13 9PL
"9015 W Maple St, Milwaukee, WI 53214, United States ","9015 W Maple St, ",", Milwaukee,",", Milwaukee", WI 53214
"3550 St Johns Bluff Rd S, Jacksonville, FL 32224, United States ","3550 St Johns Bluff Rd S, ",", Jacksonville,",", Jacksonville", FL 32224
"6601 S Ridge Rd W, Haysville, KS 67060, United States ","6601 S Ridge Rd W, ",", Haysville,",", Haysville", KS 67060
"Felix-Wankel-Straße 8, 60314 Frankfurt am Main, Germany ","Felix-Wankel-Straße 8, 60314 ",", Germany ",", Germany",
"500 White Plains Rd, Tarrytown, NY 10591, United States ","500 White Plains Rd, ",", Tarrytown,",", Tarrytown", NY 10591
"Broadwater Park, Denham, Middlesex UB9 5HR, United Kingdom","Broadwater Park, ",", Denham,",", Denham, Middle", UB9 5HR
"Nattermannallee 1, 50829 Köln, Germany ","Nattermannallee 1, 50829 ",", Germany ",", Germany",
"80 Victoria St, London SW1E 5JL, United Kingdom ","80 Victoria St, ",", London ",", United Kingdo", SW1E 5JL
"1459 Hamilton Ave, Cleveland, OH 44114, United States ","1459 Hamilton Ave, ",", Cleveland,",", Cleveland", OH 44114
